{"version": 0.6, "generator": "Overpass API 0.7.62.8 e802775f", "osm3s": {"timestamp_osm_base": "2025-11-28T18:33:53Z", "copyright": "The data included in this document is from www.openstreetmap.org. The data is made available under ODbL."}, "elements": [{"type": "node", "id": 249823635, "lat": 28.6527444, "lon": 77.1316496, "tags": {"name": "Ramesh Nagar", "name:hi": "\u0930\u092e\u0947\u0936 \u0928\u0917\u0930", "name:ur": "\u0631\u0645\u06cc\u0634 \u0646\u06af\u0631", "network": "Delhi Metro", "note": "Contributors are requested to not edit the \"network\" and the \"operator\" tags. (2023/06/22)", "operator": "Delhi Metro Rail Corporation Limited", "public_transport": "station", "railway": "station", "station": "subway", "subway": "yes", "wheelchair": "limited", "wikidata": "Q259656", "wikipedia": "en:Ramesh Nagar metro station"}}, {"type": "node", "id": 252584508, "lat": 28.6498106, "lon": 77.3144992, "tags": {"internet_access": "no", "name": "Anand Vihar", "name:ur": "\u0622\u0646\u0646\u062f \u0648\u06c1\u0627\u0631", "network": "Indian Railways", "operator": "Northern Railway", "public_transport": "station", "railway": "station", "ref": "ANVR", "train": "yes"}}, {"type": "node", "id": 268217229, "lat": 28.6450127, "lon": 77.1692817, "tags": {"name": "Patel Nagar", "name:hi": "\u092a\u091f\u0947\u0932 \u0928\u0917\u0930", "name:kn": "\u0caa\u0c9f\u0cc7\u0cb2\u0ccd \u0ca8\u0c97\u0cb0\u0ccd", "name:ur": "\u067e\u0679\u06cc\u0644 \u0646\u06af\u0631", "network": "Delhi Metro", "note": "Contributors are requested to not edit the \"network\" and the \"operator\" tags. (2023/06/22)", "operator": "Delhi Metro Rail Corporation Limited", "public_transport": "station", "railway": "station", "station": "subway", "subway": "yes", "wikidata": "Q7144412", "wikipedia": "en:Patel Nagar metro station"}}, {"type": "node", "id": 268381455, "lat": 28.7208064, "lon": 77.1071813, "tags": {"name": "Rithala", "name:hi": "\u0930\u093f\u0920\u093e\u0932\u093e", "name:ur": "\u0631\u0679\u06be\u0627\u0644\u0627", "network": "Delhi Metro", "note": "Contributors are requested to not edit the \"network\" and the \"operator\" tags. (2023/06/22)", "operator": "Delhi Metro Rail Corporation Limited", "public_transport": "station", "railway": "station", "station": "subway", "subway": "yes", "wikidata": "Q4207358", "wikipedia": "en:Rithala metro station"}}, {"type": "node", "id": 268381457, "lat": 28.6667177, "lon": 77.1988974, "tags": {"name": "Pratap Nagar", "name:hi": "\u092a\u094d\u0930\u0924\u093e\u092a \u0928\u0917\u0930", "name:ur": "\u067e\u0631\u062a\u0627\u067e \u0646\u06af\u0631", "network": "Delhi Metro", "note": "Contributors are requested to not edit the \"network\" and the \"operator\" tags. (2023/06/22)", "operator": "Delhi Metro Rail Corporation Limited", "public_transport": "station", "railway": "station", "station": "subway", "subway": "yes", "wikidata": "Q7238590", "wikipedia": "en:Pratap Nagar metro station"}}, {"type": "node", "id": 268381463, "lat": 28.6664068, "lon": 77.2074156, "tags": {"alt_name:ur": "\u067e\u0644 \u0628\u0646\u06af\u0634", "name": "Pul Bangash", "name:en": "Pul Bangash", "name:hi": "\u092a\u0941\u0932 \u092c\u0902\u0917\u0936", "name:ur": "\u067e\u064f\u0644 \u0628\u0646\u06af\u0634", "network": "Delhi Metro", "note": "Contributors are requested to not edit the \"network\" and the \"operator\" tags. (2023/06/22)", "operator": "Delhi Metro Rail Corporation Limited", "public_transport": "station", "railway": "station", "station": "subway", "subway": "yes", "wikidata": "Q7259157", "wikipedia": "en:Pul Bangash metro station"}}, {"type": "node", "id": 268381477, "lat": 28.6674493, "lon": 77.2282488, "tags": {"name": "Kashmere Gate", "name:hi": "\u0915\u0936\u094d\u092e\u0940\u0930\u0940 \u0926\u0930\u0935\u093e\u091c\u093c\u093e", "name:ks": "\u06a9\u0634\u0645\u06cc\u0631\u06cc \u062f\u0631\u0648\u0627\u0632\u06c1", "name:pa": "\u0a15\u0a38\u0a3c\u0a2e\u0a40\u0a30\u0a40 \u0a17\u0a47\u0a1f", "name:pnb": "\u06a9\u0634\u0645\u06cc\u0631\u06cc \u06af\u06cc\u0679", "name:uk": "\u041a\u0430\u0448\u043c\u0456\u0440\u0441\u044c\u043a\u0430 \u0431\u0440\u0430\u043c\u0430", "name:ur": "\u06a9\u0634\u0645\u06cc\u0631\u06cc \u062f\u0631\u0648\u0627\u0632\u06c1", "network": "Delhi Metro", "note": "Contributors are requested to not edit the \"network\" and the \"operator\" tags. (2023/06/22)", "operator": "Delhi Metro Rail Corporation Limited", "public_transport": "station", "railway": "station", "station": "subway", "subway": "yes", "wikidata": "Q4207344", "wikipedia": "en:Kashmere Gate metro station"}}, {"type": "node", "id": 311963955, "lat": 28.6980415, "lon": 77.1405393, "tags": {"name": "Kohat Enclave", "name:hi": "\u0915\u094b\u0939\u093e\u091f \u090f\u0928\u0915\u094d\u0932\u0947\u0935", "network": "Delhi Metro", "note": "Contributors are requested to not edit the \"network\" and the \"operator\" tags. (2023/06/22)", "operator": "Delhi Metro Rail Corporation Limited", "public_transport": "station", "railway": "station", "station": "subway", "subway": "yes", "wikidata": "Q6425927", "wikipedia": "en:Kohat Enclave metro station"}}, {"type": "node", "id": 345195834, "lat": 28.8464766, "lon": 77.0856631, "tags": {"internet_access": "no", "name": "Narela", "name:hi": "\u0928\u0930\u0947\u0932\u093e", "network": "IR", "operator": "NR", "public_transport": "station", "railway": "station", "ref": "NUR", "train": "yes", "wikidata": "Q24948632"}}, {"type": "node", "id": 345195841, "lat": 28.8015786, "lon": 77.1024832, "tags": {"internet_access": "no", "name": "Holambi Kalan", "network": "IR", "operator": "NR", "public_transport": "station", "railway": "station", "ref": "HUK", "train": "yes", "wikidata": "Q31296640"}}, {"type": "node", "id": 345199448, "lat": 28.7696903, "lon": 77.1158609, "tags": {"internet_access": "no", "name": "Khera Kalan", "network": "IR", "operator": "NR", "public_transport": "station", "railway": "station", "ref": "KHKN", "train": "yes", "wikidata": "Q24948474", "wikipedia": "en:Khera Kalan railway station"}}, {"type": "node", "id": 345234441, "lat": 28.6440122, "lon": 77.1885235, "tags": {"name": "Karol Bagh", "name:hi": "\u0915\u0930\u094b\u0932 \u092c\u093e\u0917", "name:kn": "\u0c95\u0cb0\u0ccb\u0cb2\u0ccd \u0cad\u0cbe\u0c97\u0ccd", "name:ur": "\u0642\u0631\u0648\u0644 \u0628\u0627\u063a", "network": "Delhi Metro", "network:wikidata": "Q271195", "note": "Contributors are requested to not edit the \"network\" and the \"operator\" tags. (2023/06/22)", "operator": "Delhi Metro Rail Corporation Limited", "operator:wikidata": "Q1029339", "public_transport": "station", "railway": "station", "station": "subway", "subway": "yes", "wikidata": "Q6373014", "wikipedia": "en:Karol Bagh metro station"}}, {"type": "node", "id": 347676531, "lat": 28.655746, "lon": 77.1506635, "tags": {"name": "Kirti Nagar (Blue Line)", "name:hi": "\u0915\u0940\u0930\u094d\u0924\u093f \u0928\u0917\u0930", "network": "Delhi Metro", "note": "Contributors are requested to not edit the \"network\" and the \"operator\" tags. (2023/06/22)", "operator": "Delhi Metro Rail Corporation Limited", "public_transport": "station", "railway": "station", "ref": "KNR", "station": "subway", "subway": "yes", "wikidata": "Q12419759", "wikipedia": "en:Kirti Nagar metro station"}}, {"type": "node", "id": 347676595, "lat": 28.6515829, "lon": 77.1582587, "tags": {"internet_access:fee": "no", "name": "Shadipur", "name:hi": "\u0936\u093e\u0926\u0940\u092a\u0941\u0930", "name:kn": "\u0cb7\u0cbe\u0ca6\u0cbf\u0caa\u0cc1\u0cb0\u0ccd", "name:ur": "\u0634\u0627\u062f\u06cc \u067e\u0648\u0631", "network": "Delhi Metro", "note": "Contributors are requested to not edit the \"network\" and the \"operator\" tags. (2023/06/22)", "operator": "Delhi Metro Rail Corporation Limited", "public_transport": "station", "railway": "station", "station": "subway", "subway": "yes", "wikidata": "Q11306954", "wikipedia": "en:Shadipur metro station"}}, {"type": "node", "id": 347676947, "lat": 28.657859, "lon": 77.1424288, "tags": {"name": "Moti Nagar", "name:hi": "\u092e\u094b\u0924\u0940 \u0928\u0917\u0930", "name:ur": "\u0645\u0648\u062a\u06cc \u0646\u06af\u0631", "network": "Delhi Metro", "note": "Contributors are requested to not edit the \"network\" and the \"operator\" tags. (2023/06/22)", "operator": "Delhi Metro Rail Corporation Limited", "public_transport": "station", "railway": "station", "station": "subway", "subway": "yes", "wheelchair": "limited", "wikidata": "Q6917665", "wikipedia": "en:Moti Nagar metro station"}}, {"type": "node", "id": 554257763, "lat": 28.5487786, "lon": 77.1207949, "tags": {"name": "Delhi Aerocity", "name:hi": "\u0926\u093f\u0932\u094d\u0932\u0940 \u090f\u0930\u094b\u0938\u093f\u091f\u0940", "network": "Delhi Metro", "network:wikidata": "Q271195", "note": "Contributors are requested to not edit the \"network\" and the \"operator\" tags. (2023/06/22)", "operator": "Delhi Metro Rail Corporation Limited", "operator:wikidata": "Q1029339", "public_transport": "station", "railway": "station", "ref": "DACY", "station": "subway", "subway": "yes", "wikidata": "Q5253729", "wikipedia": "en:Delhi Aerocity metro station"}}, {"type": "node", "id": 554257787, "lat": 28.5442564, "lon": 77.2067072, "tags": {"internet_access": "no", "name": "Hauz Khas (Yellow Line)", "name:ar": "\u062d\u0648\u0636 \u062e\u0627\u0635", "name:hi": "\u0939\u094c\u091c\u093c \u0916\u093e\u0938", "name:kn": "\u0cb9\u0ccc\u0cb8\u0ccd \u0c96\u0cbe\u0c9c\u0cbc\u0ccd", "name:ur": "\u062d\u0648\u0636 \u062e\u0627\u0635", "network": "Delhi Metro", "note": "Contributors are requested to not edit the \"network\" and the \"operator\" tags. (2023/06/22)", "operator": "Delhi Metro Rail Corporation Limited", "payment:cards": "yes", "payment:cash": "yes", "payment:coins": "yes", "payment:contactless": "yes", "payment:electronic_purses": "yes", "public_transport": "station", "railway": "station", "ref": "HKS", "station": "subway", "subway": "yes", "wikidata": "Q5683002", "wikipedia": "en:Hauz Khas metro station"}}, {"type": "node", "id": 554257833, "lat": 28.6288963, "lon": 77.2113218, "tags": {"name": "Shivaji Stadium", "name:hi": "\u0936\u093f\u0935\u093e\u091c\u0940 \u0938\u094d\u091f\u0947\u0921\u093f\u092f\u092e", "name:kn": "\u0cb6\u0cbf\u0cb5\u0cbe\u0c9c\u0cbf \u0cb8\u0ccd\u0c9f\u0cc7\u0ca1\u0cbf\u0caf\u0cae\u0ccd", "network": "Delhi Metro", "network:wikidata": "Q271195", "note": "Contributors are requested to not edit the \"network\" and the \"operator\" tags. (2023/06/22)", "operator": "Delhi Metro Rail Corporation Limited", "operator:wikidata": "Q1029339", "public_transport": "station", "railway": "station", "ref": "SJSU", "station": "subway", "subway": "yes", "wikidata": "Q11308729", "wikipedia": "en:Shivaji Stadium metro station"}}, {"type": "node", "id": 554257841, "lat": 28.6434826, "lon": 77.2227421, "tags": {"alt_name:ar": "\u0646\u064a\u0648\u062f\u0644\u0647\u064a", "alt_name:ks": "\u0646\u0654\u0648 \u062f\u0650\u0644", "alt_name:ur": "\u0646\u0626\u06cc \u062f\u0644\u06cc", "name": "New Delhi", "name:ar": "\u062f\u0644\u0647\u064a \u0627\u0644\u062c\u062f\u064a\u062f\u0629", "name:az-Arab": "\u06cc\u0626\u0646\u06cc \u062f\u0647\u0644\u06cc", "name:azb": "\u06cc\u0626\u0646\u06cc \u062f\u0647\u0644\u06cc", "name:de": "Neu-Delhi", "name:el": "\u039d\u03ad\u03bf \u0394\u03b5\u03bb\u03c7\u03af", "name:es": "Nueva Delhi", "name:grc": "\u039d\u03b5\u03bf\u03b4\u03b5\u03bb\u03af\u03c2", "name:hi": "\u0928\u0908 \u0926\u093f\u0932\u094d\u0932\u0940", "name:hy": "\u0546\u0575\u0578\u0582 \u0534\u0565\u056c\u056b", "name:hyw": "\u0546\u056b\u0582 \u054f\u0565\u056c\u0570\u056b", "name:ks": "\u0646\u0654\u0648 \u062f\u0644\u06be\u06cc", "name:ml": "\u0d28\u0d4d\u0d2f\u0d42 \u0d21\u0d46\u0d7d\u0d39\u0d3f", "name:pa": "\u0a28\u0a35\u0a40\u0a02 \u0a26\u0a3f\u0a71\u0a32\u0a40", "name:ug": "\u064a\u06d0\u06ad\u0649 \u062f\u06d0\u06be\u0644\u0649", "name:ur": "\u0646\u0626\u06cc \u062f\u06c1\u0644\u06cc", "network": "Delhi Metro", "note": "Contributors are requested to not edit the \"network\" and the \"operator\" tags. (2023/06/22)", "operator": "Delhi Metro Rail Corporation Limited", "public_transport": "station", "railway": "station", "ref": "NDLS", "station": "subway", "subway": "yes", "wikidata": "Q3634456", "wikipedia": "en:New Delhi metro station"}}, {"type": "node", "id": 561316983, "lat": 28.6671626, "lon": 77.2166306, "tags": {"addr:housenumber": "Tis Hazari Metro Station", "air_conditioning": "yes", "name": "Tis Hazari", "name:hi": "\u0924\u0940\u0938 \u0939\u091c\u093e\u0930\u0940 \u092e\u0947\u091f\u094d\u0930\u094b \u0938\u094d\u091f\u0947\u0936\u0928", "name:ur": "\u062a\u06cc\u0633 \u06c1\u0632\u0627\u0631\u06cc", "network": "Delhi Metro", "note": "Contributors are requested to not edit the \"network\" and the \"operator\" tags. (2023/06/22)", "operator": "Delhi Metro Rail Corporation Limited", "public_transport": "station", "railway": "station", "station": "subway", "subway": "yes", "website": "https://www.delhimetrorail.com/", "wheelchair": "yes", "wikidata": "Q3632416", "wikipedia": "en:Tis Hazari metro station"}}, {"type": "node", "id": 632050796, "lat": 28.6117094, "lon": 77.1156635, "tags": {"alt_name": "Delhi Cantt", "internet_access": "no", "name": "Delhi Cantonment", "name:ur": "\u062f\u06c1\u0644\u06cc \u0686\u06be\u0627\u0624\u0646\u06cc", "network": "Indian Railways", "operator": "Northern Railway", "public_transport": "station", "railway": "station", "ref": "DEC", "train": "yes", "wikidata": "Q16955670", "wikipedia": "en:Delhi Cantonment railway station"}}, {"type": "node", "id": 663755930, "lat": 28.6684339, "lon": 77.2505301, "tags": {"name": "Shastri Park", "name:hi": "\u0936\u093e\u0938\u094d\u0924\u094d\u0930\u0940 \u092a\u093e\u0930\u094d\u0915", "name:ur": "\u0634\u0627\u0633\u062a\u0631\u06cc \u067e\u0627\u0631\u06a9", "network": "Delhi Metro", "note": "Contributors are requested to not edit the \"network\" and the \"operator\" tags. (2023/06/22)", "operator": "Delhi Metro Rail Corporation Limited", "public_transport": "station", "railway": "station", "station": "subway", "subway": "yes", "wikidata": "Q11307901", "wikipedia": "en:Shastri Park metro station"}}, {"type": "node", "id": 663758609, "lat": 28.6698165, "lon": 77.2668137, "tags": {"name": "Seelampur", "name:hi": "\u0938\u0940\u0932\u092e\u092a\u0941\u0930", "name:ur": "\u0633\u06cc\u0644\u0645 \u067e\u0648\u0631", "network": "Delhi Metro", "note": "Contributors are requested to not edit the \"network\" and the \"operator\" tags. (2023/06/22)", "operator": "Delhi Metro Rail Corporation Limited", "public_transport": "station", "railway": "station", "station": "subway", "subway": "yes", "wikidata": "Q7445815", "wikipedia": "en:Seelampur metro station"}}, {"type": "node", "id": 663758748, "lat": 28.6717524, "lon": 77.2778548, "tags": {"name": "Welcome (Red Line)", "name:hi": "\u0935\u0947\u0932\u0915\u092e", "network": "Delhi Metro", "note": "Contributors are requested to not edit the \"network\" and the \"operator\" tags. (2023/06/22)", "operator": "Delhi Metro Rail Corporation Limited", "public_transport": "station", "railway": "station", "station": "subway", "subway": "yes", "wikidata": "Q11288582", "wikipedia": "en:Welcome metro station"}}, {"type": "node", "id": 663758998, "lat": 28.6734298, "lon": 77.2898858, "tags": {"name": "Shahdara", "name:hi": "\u0936\u093e\u0939\u0926\u0930\u093e", "name:ur": "\u0634\u0627\u06c1\u062f\u0631\u06c1", "network": "Delhi Metro", "note": "Contributors are requested to not edit the \"network\" and the \"operator\" tags. (2023/06/22)", "operator": "Delhi Metro Rail Corporation Limited", "public_transport": "station", "railway": "station", "station": "subway", "subway": "yes", "wikidata": "Q11307902", "wikipedia": "en:Shahdara metro station"}}, {"type": "node", "id": 663759047, "lat": 28.6734557, "lon": 77.2922087, "tags": {"internet_access": "no", "name": "Delhi Shahdara Junction", "name:ur": "\u062f\u06c1\u0644\u06cc \u0634\u0627\u06c1\u062f\u0631\u06c1 \u062c\u0646\u06a9\u0634\u0646", "network": "IR", "operator": "NR", "public_transport": "station", "railway": "station", "ref": "DSA", "train": "yes", "wikidata": "Q24948309"}}, {"type": "node", "id": 663759851, "lat": 28.6757197, "lon": 77.3123949, "tags": {"name": "Jhilmil", "name:hi": "\u091d\u093f\u0932\u092e\u093f\u0932", "name:ur": "\u062c\u06be\u0644 \u0645\u0644", "network": "Delhi Metro", "note": "Contributors are requested to not edit the \"network\" and the \"operator\" tags. (2023/06/22)", "operator": "Delhi Metro Rail Corporation Limited", "public_transport": "station", "railway": "station", "station": "subway", "subway": "yes", "wikidata": "Q6191072", "wikipedia": "en:Jhilmil metro station"}}, {"type": "node", "id": 663760328, "lat": 28.6731908, "lon": 77.3182947, "tags": {"internet_access": "no", "name": "Vivek Vihar", "name:hi": "\u0935\u093f\u0935\u0947\u0915 \u0935\u093f\u0939\u093e\u0930", "network": "IR", "operator": "NR", "public_transport": "station", "railway": "station", "ref": "VVB", "train": "yes", "wikidata": "Q63369404"}}, {"type": "node", "id": 663761411, "lat": 28.6700885, "lon": 77.1818589, "tags": {"name": "Shastri Nagar", "name:hi": "\u0936\u093e\u0938\u094d\u0924\u094d\u0930\u0940 \u0928\u0917\u0930", "network": "Delhi Metro", "note": "Contributors are requested to not edit the \"network\" and the \"operator\" tags. (2023/06/22)", "operator": "Delhi Metro Rail Corporation Limited", "public_transport": "station", "railway": "station", "station": "subway", "subway": "yes", "wikipedia": "en:Shastri Nagar metro station"}}, {"type": "node", "id": 663761428, "lat": 28.6735891, "lon": 77.1703467, "tags": {"alt_name": "Trinagar", "name": "Inderlok (Red Line)", "name:hi": "\u0907\u0902\u0926\u094d\u0930\u0932\u094b\u0915", "network": "Delhi Metro", "note": "Contributors are requested to not edit the \"network\" and the \"operator\" tags. (2023/06/22)", "operator": "Delhi Metro Rail Corporation Limited", "public_transport": "station", "railway": "station", "station": "subway", "subway": "yes", "wikidata": "Q4207366", "wikipedia": "en:Inderlok metro station"}}, {"type": "node", "id": 663761505, "lat": 28.6824082, "lon": 77.1647754, "tags": {"name": "Kanhaiya Nagar", "name:hi": "\u0915\u0928\u094d\u0939\u0948\u092f\u093e \u0928\u0917\u0930", "name:ur": "\u06a9\u0646\u06c1\u06cc\u0627 \u0646\u06af\u0631", "network": "Delhi Metro", "note": "Contributors are requested to not edit the \"network\" and the \"operator\" tags. (2023/06/22)", "operator": "Delhi Metro Rail Corporation Limited", "public_transport": "station", "railway": "station", "station": "subway", "subway": "yes", "wikidata": "Q11295526"}}, {"type": "node", "id": 663762151, "lat": 28.6889264, "lon": 77.1616833, "tags": {"name": "Keshav Puram", "name:hi": "\u0915\u0947\u0936\u0935 \u092a\u0941\u0930\u092e", "name:ur": "\u06a9\u06cc\u0634\u0648 \u067e\u0648\u0631\u0645", "network": "Delhi Metro", "note": "Contributors are requested to not edit the \"network\" and the \"operator\" tags. (2023/06/22)", "operator": "Delhi Metro Rail Corporation Limited", "public_transport": "station", "railway": "station", "station": "subway", "subway": "yes", "wikidata": "Q6394986"}}, {"type": "node", "id": 663762964, "lat": 28.6960485, "lon": 77.1524856, "tags": {"name": "Netaji Subhash Place (Red Line)", "name:hi": "\u0928\u0947\u0924\u093e\u091c\u0940 \u0938\u0941\u092d\u093e\u0937 \u092a\u094d\u0932\u0947\u0938", "network": "Delhi Metro", "note": "Contributors are requested to not edit the \"network\" and the \"operator\" tags. (2023/06/22)", "operator": "Delhi Metro Rail Corporation Limited", "public_transport": "station", "railway": "station", "station": "subway", "subway": "yes", "wikidata": "Q6998648", "wikipedia": "en:Netaji Subhash Place metro station"}}, {"type": "node", "id": 663765153, "lat": 28.7032676, "lon": 77.1322497, "tags": {"name": "Pitam Pura", "name:hi": "\u092a\u0940\u0924\u092e\u092a\u0941\u0930\u093e", "name:ur": "\u067e\u06cc\u062a\u0645 \u067e\u0648\u0631\u06c1", "network": "Delhi Metro", "note": "Contributors are requested to not edit the \"network\" and the \"operator\" tags. (2023/06/22)", "operator": "Delhi Metro Rail Corporation Limited", "public_transport": "station", "railway": "station", "station": "subway", "subway": "yes", "wheelchair": "limited", "wikidata": "Q7198601", "wikipedia": "en:Pitampura metro station"}}, {"type": "node", "id": 663766390, "lat": 28.7075774, "lon": 77.1259971, "tags": {"name": "Rohini East", "name:hi": "\u0930\u094b\u0939\u093f\u0923\u0940 \u0908\u0938\u094d\u091f", "network": "Delhi Metro", "note": "Contributors are requested to not edit the \"network\" and the \"operator\" tags. (2023/06/22)", "operator": "Delhi Metro Rail Corporation Limited", "public_transport": "station", "railway": "station", "station": "subway", "subway": "yes", "wheelchair": "limited", "wikidata": "Q11351030", "wikipedia": "en:Rohini East metro station"}}, {"type": "node", "id": 910356438, "lat": 28.5822036, "lon": 77.1862115, "tags": {"alt_name:ur": "\u062f\u0644\u06cc \u0635\u0641\u062f\u0631 \u062c\u0646\u06af;\u0635\u0641\u062f\u0631 \u062c\u0646\u06af;\u062f\u0650\u0644\u0651\u06cc \u0635\u0641\u062f\u0631 \u062c\u0646\u06af", "internet_access": "no", "name": "Delhi Safdarjang", "name:hi": "\u0926\u093f\u0932\u094d\u0932\u0940 \u0938\u092b\u0926\u0930\u091c\u0902\u0917", "name:ur": "\u062f\u06c1\u0644\u06cc \u0635\u0641\u062f\u0631 \u062c\u0646\u06af", "network": "IR", "operator": "NR", "public_transport": "station", "railway": "station", "ref": "DSJ", "train": "yes", "wikidata": "Q15648788"}}, {"type": "node", "id": 910356522, "lat": 28.5789548, "lon": 77.2276886, "tags": {"internet_access": "no", "name": "Sewa Nagar", "name:hi": "\u0938\u0947\u0935\u093e \u0928\u0917\u0930", "name:ur": "\u0633\u06cc\u0648\u0627 \u0646\u06af\u0631", "network": "IR", "operator": "NR", "public_transport": "station", "railway": "station", "ref": "SWNR", "train": "yes", "wikidata": "Q12458603"}}, {"type": "node", "id": 910356583, "lat": 28.5594753, "lon": 77.2656232, "tags": {"internet_access": "no", "name": "Okhla", "name:ur": "\u0627\u0648\u06a9\u06be\u0644\u0627", "network": "IR", "operator": "NR", "public_transport": "station", "railway": "station", "ref": "OKA", "train": "yes", "wikidata": "Q24949163"}}, {"type": "node", "id": 913081055, "lat": 28.6685068, "lon": 77.2004935, "tags": {"internet_access": "no", "name": "Subzimandi", "name:hi": "\u0938\u092c\u094d\u091c\u0940 \u092e\u0902\u0921\u0940", "name:ur": "\u0633\u0628\u0632\u06cc \u0645\u0646\u0688\u06cc", "network": "IR", "operator": "NR", "public_transport": "station", "railway": "station", "ref": "SZM", "train": "yes", "wikidata": "Q18386051", "wikipedia": "en:Subzi Mandi railway station"}}, {"type": "node", "id": 913095905, "lat": 28.660932, "lon": 77.2276494, "tags": {"alt_name": "Old Delhi Railway Station", "alt_name:ur": "\u067e\u0631\u0627\u0646\u06cc \u062f\u06c1\u0644\u06cc \u0631\u06cc\u0644\u0648\u06d2 \u0627\u0633\u0679\u06cc\u0634\u0646;\u062f\u0644\u06cc \u062c\u0646\u06a9\u0634\u0646;\u062f\u0650\u0644\u0651\u06cc \u062c\u0646\u06a9\u0634\u0646;\u067e\u0631\u0627\u0646\u06cc \u062f\u0644\u06cc", "internet_access": "wlan", "long_name": "\u062f\u06c1\u0644\u06cc \u062c\u0646\u06a9\u0634\u0646 \u0631\u06cc\u0644\u0648\u06d2 \u0627\u0633\u0679\u06cc\u0634\u0646", "long_name:ur": "\u062f\u06c1\u0644\u06cc \u062c\u0646\u06a9\u0634\u0646 \u0631\u06cc\u0644\u0648\u06d2 \u0627\u0633\u0679\u06cc\u0634\u0646", "name": "Delhi Junction", "name:hi": "\u0926\u093f\u0932\u094d\u0932\u0940 \u091c\u0902\u0915\u094d\u0936\u0928", "name:ur": "\u062f\u06c1\u0644\u06cc \u062c\u0646\u06a9\u0634\u0646", "network": "IR", "operator": "NR", "public_transport": "station", "railway": "station", "ref": "DLI", "wikidata": "Q3633132"}}, {"type": "node", "id": 913485885, "lat": 28.6981333, "lon": 77.2063998, "tags": {"alt_name": "Guru Tegh Bahadur Nagar", "name": "GTB Nagar", "name:hi": "\u0917\u0941\u0930\u0941 \u0924\u0947\u0917 \u092c\u0939\u093e\u0926\u0941\u0930 \u0928\u0917\u0930", "network": "Delhi Metro", "note": "Contributors are requested to not edit the \"network\" and the \"operator\" tags. (2023/06/22)", "operator": "Delhi Metro Rail Corporation Limited", "public_transport": "station", "railway": "station", "ref": "GTBR", "station": "subway", "subway": "yes", "wikidata": "Q795125"}}, {"type": "node", "id": 913486329, "lat": 28.7035041, "lon": 77.1770629, "tags": {"internet_access": "no", "name": "Delhi Azadpur", "network": "IR", "operator": "NR", "public_transport": "station", "railway": "station", "ref": "DAZ", "train": "yes", "wikidata": "Q63371506"}}, {"type": "node", "id": 914644353, "lat": 28.6671217, "lon": 77.17119, "tags": {"internet_access": "no", "name": "Dayabasti", "name:hi": "\u0926\u092f\u093e\u092c\u0938\u094d\u0924\u0940", "name:ur": "\u062f\u06cc\u0627 \u0628\u0633\u062a\u06cc", "network": "IR", "operator": "NR", "public_transport": "station", "railway": "station", "ref": "DBSI", "train": "yes", "wikidata": "Q12433306"}}, {"type": "node", "id": 914644362, "lat": 28.6598088, "lon": 77.156957, "tags": {"internet_access": "no", "name": "Patel Nagar", "name:hi": "\u092a\u091f\u0947\u0932 \u0928\u0917\u0930", "name:ur": "\u067e\u0679\u06cc\u0644 \u0646\u06af\u0631", "network": "IR", "operator": "NR", "public_transport": "station", "railway": "station", "ref": "PTNR", "train": "yes", "wikidata": "Q12436750", "wikipedia": "en:Patel Nagar railway station"}}, {"type": "node", "id": 915407469, "lat": 28.6627515, "lon": 77.1852561, "tags": {"internet_access": "no", "name": "Delhi Sarai Rohilla", "name:hi": "\u0926\u093f\u0932\u094d\u0932\u0940 \u0938\u0930\u093e\u092f \u0930\u094b\u0939\u093f\u0932\u094d\u0932\u093e", "name:ur": "\u062f\u06c1\u0644\u06cc \u0633\u0631\u0627\u0626\u06d2 \u0631\u0648\u06c1\u0644\u06c1", "network": "Indian Railways", "operator": "Northern Railway", "public_transport": "station", "railway": "station", "ref": "DEE", "train": "yes", "wheelchair": "yes", "wikidata": "Q3635051", "wikipedia": "en:Delhi Sarai Rohilla railway station"}}, {"type": "node", "id": 920882336, "lat": 28.7144008, "lon": 77.1672884, "tags": {"internet_access": "no", "name": "Adarsh Nagar", "name:ur": "\u0622\u062f\u0631\u0634 \u0646\u06af\u0631", "network": "IR", "operator": "NR", "public_transport": "station", "railway": "station", "ref": "ANDI", "train": "yes", "wikidata": "Q25548840", "wikipedia": "en:Adarsh Nagar railway station"}}, {"type": "node", "id": 927873494, "lat": 28.5564626, "lon": 77.0866995, "tags": {"name": "IGI Airport", "name:hi": "\u0906\u0908.\u091c\u0940.\u0906\u0908 \u090f\u092f\u0930\u092a\u094b\u0930\u094d\u091f", "network": "Delhi Metro", "network:wikidata": "Q271195", "note": "Contributors are requested to not edit the \"network\" and the \"operator\" tags. (2023/06/22)", "operator": "Delhi Metro Rail Corporation Limited", "operator:wikidata": "Q1029339", "public_transport": "station", "railway": "station", "ref": "APOT", "station": "subway", "subway": "yes", "wikidata": "Q4698881", "wikipedia": "en:IGI Airport metro station"}}, {"type": "node", "id": 927873510, "lat": 28.5494785, "lon": 77.25909, "tags": {"name": "Kalkaji Mandir", "name:hi": "\u0915\u093e\u0932\u0915\u093e\u091c\u0940 \u092e\u0902\u0926\u093f\u0930", "name:ur": "\u06a9\u0627\u0644\u06a9\u0627\u062c\u06cc \u0645\u0646\u062f\u0631", "network": "Delhi Metro", "note": "Contributors are requested to not edit the \"network\" and the \"operator\" tags. (2023/06/22)", "operator": "Delhi Metro Rail Corporation Limited", "public_transport": "station", "railway": "station", "ref": "KJMD", "station": "subway", "subway": "yes", "wheelchair": "yes", "wikidata": "Q6353342", "wikipedia": "en:Kalkaji Mandir metro station"}}, {"type": "node", "id": 927873513, "lat": 28.5918719, "lon": 77.1617158, "tags": {"name": "Dhaula Kuan", "name:hi": "\u0927\u094c\u0932\u093e \u0915\u0941\u0906\u0901", "name:ur": "\u062f\u06be\u0648\u0644\u06c1 \u06a9\u0646\u0648\u0627\u06ba", "network": "Delhi Metro", "network:wikidata": "Q271195", "note": "Contributors are requested to not edit the \"network\" and the \"operator\" tags. (2023/06/22)", "operator": "Delhi Metro Rail Corporation Limited", "operator:wikidata": "Q1029339", "public_transport": "station", "railway": "station", "ref": "DKV", "station": "subway", "subway": "yes", "wheelchair": "yes", "wikidata": "Q5269438"}}, {"type": "node", "id": 938409545, "lat": 28.6424786, "lon": 77.2231116, "tags": {"name": "New Delhi Airport Express Terminal", "name:hi": "\u0928\u0908 \u0926\u093f\u0932\u094d\u0932\u0940 \u090f\u092f\u0930\u092a\u094b\u0930\u094d\u091f \u090f\u0915\u094d\u0938\u092a\u094d\u0930\u0947\u0938 \u091f\u0930\u094d\u092e\u093f\u0928\u0932", "network": "Delhi Metro", "network:wikidata": "Q271195", "note": "Contributors are requested to not edit the \"network\" and the \"operator\" tags. (2023/06/22)", "operator": "Delhi Metro Rail Corporation Limited", "operator:wikidata": "Q1029339", "public_transport": "station", "railway": "station", "ref": "NDI", "station": "subway", "subway": "yes", "wikidata": "Q3634456", "wikipedia": "en:New Delhi metro station"}}, {"type": "node", "id": 940975619, "lat": 28.585353, "lon": 77.0924713, "tags": {"internet_access": "no", "name": "Palam", "name:ur": "\u067e\u0627\u0644\u0645", "network": "IR", "operator": "NR", "public_transport": "station", "railway": "station", "ref": "PM", "train": "yes", "wikidata": "Q12437774"}}, {"type": "node", "id": 941132747, "lat": 28.5369587, "lon": 77.0512889, "tags": {"internet_access": "no", "name": "Bijwasan", "network": "IR", "operator": "NR", "public_transport": "station", "railway": "station", "ref": "BWSN", "train": "yes", "wikidata": "Q39049447"}}, {"type": "node", "id": 944845341, "lat": 28.6488509, "lon": 77.3155003, "tags": {"internet_access": "no", "name": "Anand Vihar Terminal", "network": "Indian Railways", "operator": "Northern Railway", "public_transport": "station", "railway": "station", "ref": "ANVT", "train": "yes", "wheelchair": "yes", "wikidata": "Q4751289", "wikipedia": "en:Anand Vihar Terminal railway station"}}, {"type": "node", "id": 1824659702, "lat": 28.6545409, "lon": 77.1513605, "tags": {"name": "Kirti Nagar (Green Line)", "name:hi": "\u0915\u0940\u0930\u094d\u0924\u093f \u0928\u0917\u0930", "network": "Delhi Metro", "note": "Contributors are requested to not edit the \"network\" and the \"operator\" tags. (2023/06/22)", "operator": "Delhi Metro Rail Corporation Limited", "public_transport": "station", "railway": "station", "station": "subway", "subway": "yes", "wikidata": "Q12419759", "wikipedia": "en:Kirti Nagar metro station"}}, {"type": "node", "id": 1824659742, "lat": 28.6620531, "lon": 77.1577026, "tags": {"name": "Satguru Ramsingh Marg", "name:hi": "\u0938\u0924\u0917\u0941\u0930\u0941 \u0930\u093e\u092e \u0938\u093f\u0902\u0939 \u092e\u093e\u0930\u094d\u0917", "name:ur": "\u0633\u062a \u06af\u0631\u0648 \u0631\u0627\u0645 \u0633\u0646\u06af\u06be \u0645\u0627\u0631\u06af", "network": "Delhi Metro", "note": "Contributors are requested to not edit the \"network\" and the \"operator\" tags. (2023/06/22)", "operator": "Delhi Metro Rail Corporation Limited", "public_transport": "station", "railway": "station", "station": "subway", "subway": "yes", "wikidata": "Q7426116", "wikipedia": "en:Satguru Ram Singh Marg metro station"}}, {"type": "node", "id": 1825425942, "lat": 28.6814073, "lon": 77.1275679, "tags": {"internet_access": "no", "name": "Shakurbasti", "name:ur": "\u0634\u06a9\u0648\u0631 \u0628\u0633\u062a\u06cc", "network": "IR", "operator": "NR", "public_transport": "station", "railway": "station", "ref": "SSB", "train": "yes", "wikidata": "Q24947948"}}, {"type": "node", "id": 1835677720, "lat": 28.5034421, "lon": 77.2970508, "tags": {"internet_access": "wlan", "name": "Tughlakabad", "name:ur": "\u062a\u063a\u0644\u0642 \u0622\u0628\u0627\u062f", "network": "IR", "operator": "NR", "public_transport": "station", "railway": "station", "ref": "TKD", "train": "yes", "wikidata": "Q16902027", "wikipedia": "en:Tughlakabad railway station"}}, {"type": "node", "id": 1988513576, "lat": 28.6137142, "lon": 77.1405102, "tags": {"alt_name:ur": "\u0628\u0631\u0627\u0631 \u0627\u0633\u06a9\u0648\u0627\u0626\u0631", "internet_access": "no", "name": "Brar Square", "name:hi": "\u092c\u0930\u093e\u0930 \u0938\u094d\u0915\u094d\u0935\u093e\u092f\u0930", "name:ur": "\u0628\u0631\u0627\u0691 \u0627\u0633\u06a9\u0648\u0627\u0626\u0631", "network": "IR", "operator": "NR", "public_transport": "station", "railway": "station", "ref": "BRSQ", "train": "yes", "wikidata": "Q12440691"}}, {"type": "node", "id": 1988513580, "lat": 28.6627442, "lon": 77.1979077, "tags": {"alt_name": "Delhi Kishan Ganj", "alt_name:ur": "\u062f\u06c1\u0644\u06cc \u06a9\u0634\u0646 \u06af\u0646\u062c", "internet_access": "no", "name": "Delhi Kishanganj", "name:hi": "\u0926\u093f\u0932\u094d\u0932\u0940 \u0915\u093f\u0936\u0928\u0917\u0902\u091c", "name:ur": "\u062f\u06c1\u0644\u06cc \u06a9\u0650\u0634\u0646 \u06af\u0646\u062c", "network": "IR", "operator": "NR", "public_transport": "station", "railway": "station", "ref": "DKZ", "train": "yes", "wikidata": "Q6416546", "wikipedia": "en:Kishanganj railway station"}}, {"type": "node", "id": 1988513581, "lat": 28.5792815, "lon": 77.2440352, "tags": {"internet_access": "no", "name": "Lajpat Nagar", "name:ar": "\u0644\u0627\u062c\u0628\u062a \u0646\u063a\u0631", "name:hi": "\u0932\u093e\u091c\u092a\u0924 \u0928\u0917\u0930", "name:ur": "\u0644\u0627\u062c\u067e\u062a \u0646\u06af\u0631", "network": "IR", "operator": "NR", "public_transport": "station", "railway": "station", "ref": "LPNR", "train": "yes", "wikidata": "Q12451209"}}, {"type": "node", "id": 1988513582, "lat": 28.5797537, "lon": 77.2168728, "tags": {"internet_access": "no", "name": "Lodhi Colony", "name:hi": "\u0932\u094b\u0927\u0940 \u0915\u0949\u0932\u094b\u0928\u0940", "name:ur": "\u0644\u0648\u062f\u06be\u06cc \u06a9\u0627\u0644\u0646\u06cc", "network": "IR", "operator": "NR", "public_transport": "station", "railway": "station", "ref": "LDCY", "train": "yes", "wikidata": "Q12451780"}}, {"type": "node", "id": 1988513583, "lat": 28.6160392, "lon": 77.2472109, "tags": {"internet_access": "no", "name": "Pragati Maidan", "name:hi": "\u092a\u094d\u0930\u0917\u0924\u093f \u092e\u0948\u0926\u093e\u0928", "name:ur": "\u067e\u0631\u06af\u062a\u06cc \u0645\u06cc\u062f\u0627\u0646", "network": "IR", "operator": "NR", "public_transport": "station", "railway": "station", "ref": "PGMD", "train": "yes", "wikidata": "Q24949212", "wikipedia": "en:Pragati Maidan railway station"}}, {"type": "node", "id": 1988513597, "lat": 28.5812101, "lon": 77.1963127, "tags": {"internet_access": "no", "name": "Sarojini Nagar", "name:hi": "\u0938\u0930\u094b\u091c\u093f\u0928\u0940 \u0928\u0917\u0930", "name:ur": "\u0633\u0631\u0648\u062c\u0646\u06cc \u0646\u06af\u0631", "network": "IR", "operator": "NR", "public_transport": "station", "railway": "station", "ref": "SOJ", "train": "yes", "wikidata": "Q12455998"}}, {"type": "node", "id": 1988513598, "lat": 28.6334521, "lon": 77.2266682, "tags": {"internet_access": "no", "name": "Shivaji Bridge", "name:hi": "\u0936\u093f\u0935\u093e\u091c\u0940 \u092a\u0941\u0932", "name:ur": "\u0634\u06cc\u0648\u0627 \u062c\u06cc \u0628\u0631\u062c", "network": "IR", "operator": "NR", "public_transport": "station", "railway": "station", "ref": "CSB", "train": "yes", "wheelchair": "yes", "wikidata": "Q24948842", "wikipedia": "en:Shivaji Bridge railway station"}}, {"type": "node", "id": 1988513599, "lat": 28.6281166, "lon": 77.2374037, "tags": {"internet_access": "no", "name": "Tilak Bridge", "name:hi": "\u0924\u093f\u0932\u0915 \u092c\u094d\u0930\u093f\u091c", "name:ur": "\u062a\u0644\u06a9 \u0628\u0631\u062c", "network": "IR", "operator": "NR", "public_transport": "station", "railway": "station", "ref": "TKJ", "train": "yes", "wikidata": "Q12432167"}}, {"type": "node", "id": 1988513600, "lat": 28.6644729, "lon": 77.1838135, "tags": {"alt_name": "Sarai Rohilla", "internet_access": "no", "name": "Vivekanand Puri", "name:hi": "\u0935\u093f\u0935\u0947\u0915\u093e\u0928\u0902\u0926 \u092a\u0941\u0930\u0940", "network": "IR", "operator": "NR", "public_transport": "station", "railway": "station", "ref": "WKP", "train": "yes", "wikidata": "Q12453008"}}, {"type": "node", "id": 1988585233, "lat": 28.5889646, "lon": 77.2535202, "tags": {"alt_name:hi": "\u0939\u091c\u0930\u0924 \u0928\u093f\u091c\u093e\u092e\u0941\u0926\u094d\u0926\u0940\u0928 \u091c\u0902\u0915\u094d\u0936\u0928", "internet_access": "wlan", "name": "Hazrat Nizamuddin Junction", "name:hi": "\u0939\u091c\u093c\u0930\u0924 \u0928\u093f\u091c\u093c\u093e\u092e\u0941\u0926\u094d\u0926\u0940\u0928 \u091c\u0902\u0915\u094d\u0936\u0928", "name:ml": "\u0d39\u0d38\u0d4d\u0d30\u0d24\u0d4d\u0d24\u0d4d \u0d28\u0d3f\u0d38\u0d3e\u0d2e\u0d41\u0d26\u0d4d\u0d26\u0d40\u0d7b \u0d1c\u0d02\u0d17\u0d4d\u0d37\u0d7b", "name:ur": "\u062d\u0636\u0631\u062a \u0646\u0638\u0627\u0645 \u0627\u0644\u062f\u06cc\u0646 \u062c\u0646\u06a9\u0634\u0646", "network": "IR", "operator": "NR", "public_transport": "station", "railway": "station", "ref": "NZM", "train": "yes", "wheelchair": "yes", "wikidata": "Q2723139", "wikipedia": "en:Hazrat Nizamuddin railway station"}}, {"type": "node", "id": 1988598418, "lat": 28.7149569, "lon": 77.115385, "tags": {"name": "Rohini West", "name:hi": "\u0930\u094b\u0939\u093f\u0923\u0940 \u0935\u0947\u0938\u094d\u091f", "network": "Delhi Metro", "note": "Contributors are requested to not edit the \"network\" and the \"operator\" tags. (2023/06/22)", "operator": "Delhi Metro Rail Corporation Limited", "public_transport": "station", "railway": "station", "station": "subway", "subway": "yes", "wikidata": "Q7359754"}}, {"type": "node", "id": 2579042823, "lat": 28.6119086, "lon": 76.9785264, "tags": {"name": "Dhansa Bus Stand", "name:hi": "\u0922\u093e\u0902\u0938\u093e \u092c\u0938 \u0938\u094d\u091f\u0948\u0902\u0921", "network": "Delhi Metro", "note": "Contributors are requested to not edit the \"network\" and the \"operator\" tags. (2023/06/22)", "operator": "Delhi Metro Rail Corporation Limited", "public_transport": "station", "railway": "station", "ref": "DNBT", "station": "subway", "subway": "yes", "wikidata": "Q107555792", "wikipedia": "en:Dhansa Bus Stand metro station"}}, {"type": "node", "id": 2832938172, "lat": 28.5433691, "lon": 77.2050447, "tags": {"depth": "32", "name": "Hauz Khas (Magenta Line)", "name:ar": "\u062d\u0648\u0636 \u062e\u0627\u0635", "name:hi": "\u0939\u094c\u091c\u093c \u0916\u093e\u0938", "name:ur": "\u062d\u0648\u0636 \u062e\u0627\u0635", "network": "Delhi Metro", "note": "Contributors are requested to not edit the \"network\" and the \"operator\" tags. (2023/06/22)", "operator": "Delhi Metro Rail Corporation Limited", "public_transport": "station", "railway": "station", "ref": "HKS", "station": "subway", "subway": "yes", "wikidata": "Q5683002", "wikipedia": "en:Hauz Khas metro station"}}, {"type": "node", "id": 2832938185, "lat": 28.5568967, "lon": 77.1750592, "tags": {"name": "Munirka", "name:hi": "\u092e\u0941\u0928\u093f\u0930\u0915\u093e", "name:ur": "\u0645\u0646\u06cc\u0631\u06a9\u0627", "network": "Delhi Metro", "note": "Contributors are requested to not edit the \"network\" and the \"operator\" tags. (2023/06/22)", "operator": "Delhi Metro Rail Corporation Limited", "public_transport": "station", "railway": "station", "ref": "MIRK", "station": "subway", "subway": "yes", "wikidata": "Q28172590", "wikipedia": "en:Munirka metro station"}}, {"type": "node", "id": 2832938187, "lat": 28.5597477, "lon": 77.2749004, "tags": {"name": "Sukhdev Vihar", "name:hi": "\u0938\u0941\u0916\u0926\u0947\u0935 \u0935\u093f\u0939\u093e\u0930", "name:ur": "\u0633\u06a9\u06be \u062f\u06cc\u0648 \u0648\u06c1\u0627\u0631", "network": "Delhi Metro", "note": "Contributors are requested to not edit the \"network\" and the \"operator\" tags. (2023/06/22)", "operator": "Delhi Metro Rail Corporation Limited", "public_transport": "station", "railway": "station", "ref": "IWNR", "station": "subway", "subway": "yes", "wikidata": "Q28172610", "wikipedia": "en:Sukhdev Vihar metro station"}}, {"type": "node", "id": 2832938196, "lat": 28.557827, "lon": 77.1611168, "tags": {"name": "Vasant Vihar", "name:hi": "\u0935\u0938\u0902\u0924 \u0935\u093f\u0939\u093e\u0930", "name:ur": "\u0648\u0633\u0646\u062a \u0648\u06c1\u0627\u0631", "network": "Delhi Metro", "note": "Contributors are requested to not edit the \"network\" and the \"operator\" tags. (2023/06/22)", "operator": "Delhi Metro Rail Corporation Limited", "public_transport": "station", "railway": "station", "ref": "VTVR", "station": "subway", "subway": "yes", "wikidata": "Q28172570", "wikipedia": "en:Vasant Vihar metro station"}}, {"type": "node", "id": 2832938301, "lat": 28.5608462, "lon": 77.1402814, "tags": {"name": "Shankar Vihar", "name:hi": "\u0936\u0902\u0915\u0930 \u0935\u093f\u0939\u093e\u0930", "name:ur": "\u0634\u0646\u06a9\u0631 \u0648\u06c1\u0627\u0631", "network": "Delhi Metro", "note": "Contributors are requested to not edit the \"network\" and the \"operator\" tags. (2023/06/22)", "operator": "Delhi Metro Rail Corporation Limited", "public_transport": "station", "railway": "station", "ref": "SKVR", "station": "subway", "subway": "yes"}}, {"type": "node", "id": 2832938307, "lat": 28.5771145, "lon": 77.1111279, "tags": {"name": "Sadar Bazar Cantonment", "name:hi": "\u0938\u0926\u0930 \u092c\u093e\u091c\u093e\u0930 \u091b\u093e\u0935\u0928\u0940", "network": "Delhi Metro", "note": "Contributors are requested to not edit the \"network\" and the \"operator\" tags. (2023/06/22)", "operator": "Delhi Metro Rail Corporation Limited", "public_transport": "station", "railway": "station", "ref": "SABR", "station": "subway", "subway": "yes", "wheelchair": "no", "wikipedia": "en:Sadar Bazar Cantonment metro station"}}, {"type": "node", "id": 2832938323, "lat": 28.5889102, "lon": 77.0830764, "tags": {"addr:city": "New Delhi", "addr:postcode": "110045", "addr:street": "Palam", "name": "Palam", "name:hi": "\u092a\u093e\u0932\u092e", "name:ur": "\u067e\u0627\u0644\u0645", "network": "Delhi Metro", "note": "Contributors are requested to not edit the \"network\" and the \"operator\" tags. (2023/06/22)", "operator": "Delhi Metro Rail Corporation Limited", "public_transport": "station", "railway": "station", "ref": "PALM", "station": "subway", "subway": "yes", "wikidata": "Q20718091", "wikipedia": "en:Palam metro station"}}, {"type": "node", "id": 2832938324, "lat": 28.60185, "lon": 77.0823751, "tags": {"name": "Dashrath Puri", "name:hi": "\u0926\u0936\u0930\u0925 \u092a\u0941\u0930\u0940", "name:ur": "\u062f\u0634\u0631\u062a\u06be \u067e\u0648\u0631\u06cc", "network": "Delhi Metro", "note": "Contributors are requested to not edit the \"network\" and the \"operator\" tags. (2023/06/22)", "operator": "Delhi Metro Rail Corporation Limited", "public_transport": "station", "railway": "station", "station": "subway", "subway": "yes", "wikidata": "Q28169938", "wikipedia": "en:Dashrath Puri metro station"}}, {"type": "node", "id": 2832938329, "lat": 28.6289471, "lon": 77.0779492, "tags": {"name": "Janakpuri West", "name:hi": "\u091c\u0928\u0915\u092a\u0941\u0930\u0940 \u0935\u0947\u0938\u094d\u091f", "network": "Delhi Metro", "note": "Contributors are requested to not edit the \"network\" and the \"operator\" tags. (2023/06/22)", "operator": "Delhi Metro Rail Corporation Limited", "public_transport": "station", "railway": "station", "ref": "JPW", "station": "subway", "subway": "yes", "wheelchair": "yes", "wikidata": "Q6150737", "wikipedia": "en:Janakpuri West metro station"}}, {"type": "node", "id": 2833058716, "lat": 28.5419077, "lon": 77.2384925, "tags": {"name": "Greater Kailash", "name:hi": "\u0917\u094d\u0930\u0947\u091f\u0930 \u0915\u0948\u0932\u093e\u0936 \u0939\u0949\u0938\u094d\u092a\u093f\u091f\u0932", "network": "Delhi Metro", "note": "Contributors are requested to not edit the \"network\" and the \"operator\" tags. (2023/06/22)", "operator": "Delhi Metro Rail Corporation Limited", "public_transport": "station", "railway": "station", "ref": "GKEI", "station": "subway", "subway": "yes", "wikidata": "Q28169988", "wikipedia": "en:Greater Kailash metro station"}}, {"type": "node", "id": 2833058718, "lat": 28.542916, "lon": 77.3101107, "tags": {"name": "Kalindi Kunj", "name:hi": "\u0915\u093e\u0932\u093f\u0902\u0926\u0940 \u0915\u0941\u0902\u091c", "network": "Delhi Metro", "note": "Contributors are requested to not edit the \"network\" and the \"operator\" tags. (2023/06/22)", "operator": "Delhi Metro Rail Corporation Limited", "public_transport": "station", "railway": "station", "ref": "KIKJ", "station": "subway", "subway": "yes", "wikidata": "Q28169996", "wikipedia": "en:Kalindi Kunj metro station"}}, {"type": "node", "id": 2833058719, "lat": 28.5503522, "lon": 77.2569441, "tags": {"name": "Kalkaji Mandir", "name:hi": "\u0915\u093e\u0932\u0915\u093e\u091c\u0940 \u092e\u0902\u0926\u093f\u0930", "name:ur": "\u06a9\u0627\u0644\u06a9\u0627\u062c\u06cc \u0645\u0646\u062f\u0631", "network": "Delhi Metro", "note": "Contributors are requested to not edit the \"network\" and the \"operator\" tags. (2023/06/22)", "operator": "Delhi Metro Rail Corporation Limited", "public_transport": "station", "railway": "station", "ref": "KJMD", "station": "subway", "subway": "yes", "wikidata": "Q6353342", "wikipedia": "en:Kalkaji Mandir metro station"}}, {"type": "node", "id": 2833058720, "lat": 28.5613002, "lon": 77.2919304, "tags": {"name": "Okhla Vihar", "name:hi": "\u0913\u0916\u0932\u093e \u0935\u093f\u0939\u093e\u0930", "name:ur": "\u0627\u0648\u06a9\u06be\u0644\u0627 \u0648\u06c1\u0627\u0631", "network": "Delhi Metro", "note": "Contributors are requested to not edit the \"network\" and the \"operator\" tags. (2023/06/22)", "operator": "Delhi Metro Rail Corporation Limited", "public_transport": "station", "railway": "station", "ref": "OVA", "station": "subway", "subway": "yes", "wikidata": "Q28172613", "wikipedia": "en:Okhla Vihar metro station"}}, {"type": "node", "id": 2833058721, "lat": 28.5423747, "lon": 77.2210916, "tags": {"name": "Panchsheel Park", "name:ar": "\u062d\u062f\u064a\u0642\u0629 \u0628\u0627\u0646\u0634\u064a\u0644", "name:hi": "\u092a\u0902\u091a\u0936\u0940\u0932 \u092a\u093e\u0930\u094d\u0915", "name:ur": "\u067e\u0646\u0686\u0634\u06cc\u0644 \u067e\u0627\u0631\u06a9", "network": "Delhi Metro", "note": "Contributors are requested to not edit the \"network\" and the \"operator\" tags. (2023/06/22)", "operator": "Delhi Metro Rail Corporation Limited", "public_transport": "station", "railway": "station", "ref": "PSPK", "station": "subway", "subway": "yes", "wikidata": "Q28172601", "wikipedia": "en:Panchsheel Park metro station"}}, {"type": "node", "id": 2833058722, "lat": 28.5503805, "lon": 77.1855231, "tags": {"name": "R. K. Puram", "name:hi": "\u0906\u0930. \u0915\u0947. \u092a\u0941\u0930\u092e", "network": "Delhi Metro", "note": "Contributors are requested to not edit the \"network\" and the \"operator\" tags. (2023/06/22)", "operator": "Delhi Metro Rail Corporation Limited", "public_transport": "station", "railway": "station", "ref": "RKPM", "station": "subway", "subway": "yes", "wikidata": "Q28172592", "wikipedia": "en:R. K. Puram metro station"}}, {"type": "node", "id": 2833058723, "lat": 28.5458279, "lon": 77.2966578, "tags": {"name": "Jasola Vihar Shaheen Bagh", "name:hi": "\u091c\u0938\u094b\u0932\u093e \u0935\u093f\u0939\u093e\u0930 \u0936\u093e\u0939\u0940\u0928 \u092c\u093e\u0917", "network": "Delhi Metro", "note": "Contributors are requested to not edit the \"network\" and the \"operator\" tags. (2023/06/22)", "operator": "Delhi Metro Rail Corporation Limited", "public_transport": "station", "railway": "station", "ref": "JLA8", "station": "subway", "subway": "yes", "wikidata": "Q28169995", "wikipedia": "en:Jasola Vihar Shaheen Bagh metro station"}}, {"type": "node", "id": 2833058753, "lat": 28.564835, "lon": 77.1226566, "tags": {"name": "Terminal 1 IGI Airport", "name:hi": "\u091f\u0930\u094d\u092e\u093f\u0928\u0932 1 \u0906\u0908\u091c\u0940\u0906\u0908 \u090f\u092f\u0930\u092a\u094b\u0930\u094d\u091f", "network": "Delhi Metro", "note": "Contributors are requested to not edit the \"network\" and the \"operator\" tags. (2023/06/22)", "operator": "Delhi Metro Rail Corporation Limited", "public_transport": "station", "railway": "station", "ref": "IGDA", "station": "subway", "subway": "yes", "wikidata": "Q28172567", "wikipedia": "en:Terminal 1-IGI Airport metro station"}}, {"type": "node", "id": 2833531907, "lat": 28.613453, "lon": 77.3088549, "tags": {"name": "Trilokpuri Sanjay Lake", "name:hi": "\u0924\u094d\u0930\u093f\u0932\u094b\u0915\u092a\u0941\u0930\u0940 \u0938\u0902\u091c\u092f \u091d\u0940\u0932", "network": "Delhi Metro", "note": "Contributors are requested to not edit the \"network\" and the \"operator\" tags. (2023/06/22)", "operator": "Delhi Metro Rail Corporation Limited", "public_transport": "station", "railway": "station", "station": "subway", "subway": "yes", "wheelchair": "yes", "wikidata": "Q28172740", "wikipedia": "en:Trilokpuri Sanjay Lake metro station"}}, {"type": "node", "id": 2833971686, "lat": 28.6468336, "lon": 77.3158749, "tags": {"name": "Anand Vihar (Blue Line)", "name:hi": "\u0906\u0928\u0902\u0926 \u0935\u093f\u0939\u093e\u0930", "name:kn": "\u0c86\u0ca8\u0c82\u0ca6\u0ccd \u0cb5\u0cbf\u0cb9\u0cbe\u0cb0\u0ccd", "network": "Delhi Metro", "note": "Contributors are requested to not edit the \"network\" and the \"operator\" tags. (2023/06/22)", "operator": "Delhi Metro Rail Corporation Limited", "public_transport": "station", "public_transport:version": "2", "railway": "station", "ref": "ANVR", "station": "subway", "subway": "yes", "wikidata": "Q4751288", "wikipedia": "en:Anand Vihar metro station"}}, {"type": "node", "id": 2833971689, "lat": 28.6493434, "lon": 77.3060686, "tags": {"name": "Karkarduma (Pink Line)", "name:hi": "\u0915\u0921\u093c\u0915\u0921\u093c\u0921\u0942\u092e\u093e", "name:kn": "\u0c95\u0cb0\u0ccd\u0c95\u0cb0\u0ccd\u0ca6\u0cc1\u0cae", "network": "Delhi Metro", "note": "Contributors are requested to not edit the \"network\" and the \"operator\" tags. (2023/06/22)", "operator": "Delhi Metro Rail Corporation Limited", "public_transport": "station", "railway": "station", "station": "subway", "subway": "yes", "wikidata": "Q6371278", "wikipedia": "en:Karkarduma metro station"}}, {"type": "node", "id": 2837147019, "lat": 28.7446411, "lon": 77.1382701, "tags": {"name": "Samaypur Badli", "name:hi": "\u0938\u092e\u092f\u092a\u0941\u0930 \u092c\u093e\u0926\u0932\u0940", "network": "Delhi Metro", "note": "Contributors are requested to not edit the \"network\" and the \"operator\" tags. (2023/06/22)", "operator": "Delhi Metro Rail Corporation Limited", "public_transport": "station", "railway": "station", "ref": "SPBI", "station": "subway", "subway": "yes", "wikidata": "Q21539950", "wikipedia": "en:Samaypur Badli metro station"}}, {"type": "node", "id": 2837147020, "lat": 28.7383795, "lon": 77.1398526, "tags": {"name": "Rohini Sector 18, 19", "name:hi": "\u0930\u094b\u0939\u093f\u0923\u0940 \u0938\u0947\u0915\u094d\u091f\u0930 18, 19", "network": "Delhi Metro", "note": "Contributors are requested to not edit the \"network\" and the \"operator\" tags. (2023/06/22)", "operator": "Delhi Metro Rail Corporation Limited", "public_transport": "station", "railway": "station", "ref": "RISE", "station": "subway", "subway": "yes", "wikidata": "Q26964763", "wikipedia": "en:Rohini Sector 18, 19 metro station"}}, {"type": "node", "id": 3284155408, "lat": 28.5630488, "lon": 77.2863387, "tags": {"name": "Jamia Millia Islamia", "name:hi": "\u091c\u093e\u092e\u093f\u092f\u093e \u092e\u093f\u0932\u093f\u092f\u093e \u0907\u0938\u094d\u0932\u093e\u092e\u093f\u092f\u093e", "name:ur": "\u062c\u0627\u0645\u0639 \u0645\u0644\u06cc\u06c1 \u0627\u0633\u0644\u0627\u0645\u06cc\u06c1", "network": "Delhi Metro", "note": "Contributors are requested to not edit the \"network\" and the \"operator\" tags. (2023/06/22)", "operator": "Delhi Metro Rail Corporation Limited", "public_transport": "station", "railway": "station", "ref": "JANR", "station": "subway", "subway": "yes", "wheelchair": "yes", "wikidata": "Q28169993", "wikipedia": "en:Jamia Millia Islamia metro station"}}, {"type": "node", "id": 3504596885, "lat": 28.6183595, "lon": 77.2792224}, {"type": "node", "id": 3571786971, "lat": 28.6231854, "lon": 77.2144534}, {"type": "node", "id": 3571786974, "lat": 28.6232588, "lon": 77.2143205}, {"type": "node", "id": 3571786984, "lat": 28.623476, "lon": 77.2146617}, {"type": "node", "id": 3571786995, "lat": 28.6235494, "lon": 77.2145288}, {"type": "node", "id": 3648452304, "lat": 28.6491339, "lon": 77.238142}, {"type": "node", "id": 3648452305, "lat": 28.6492671, "lon": 77.2383813}, {"type": "node", "id": 3648452310, "lat": 28.6507532, "lon": 77.236971}, {"type": "node", "id": 3648452312, "lat": 28.6508865, "lon": 77.2372103}, {"type": "node", "id": 3736001861, "lat": 28.5603258, "lon": 77.0715537, "tags": {"internet_access": "no", "name": "Shahabad Mohammadpur", "name:ur": "\u0634\u0627\u06c1 \u0622\u0628\u0627\u062f \u0645\u062d\u0645\u062f \u067e\u0648\u0631", "network": "IR", "operator": "NR", "public_transport": "station", "railway": "station", "ref": "SMDP", "train": "yes", "wikidata": "Q55643367"}}, {"type": "node", "id": 3832323219, "lat": 28.5411108, "lon": 77.2303164, "tags": {"name": "Chirag Delhi", "name:ar": "\u0634\u064a\u0631\u0627\u062c \u062f\u064a\u0644\u064a", "name:hi": "\u091a\u093f\u0930\u093e\u0917 \u0926\u093f\u0932\u094d\u0932\u0940", "name:ur": "\u0686\u0631\u0627\u063a \u062f\u06c1\u0644\u06cc", "network": "Delhi Metro", "note": "Contributors are requested to not edit the \"network\" and the \"operator\" tags. (2023/06/22)", "operator": "Delhi Metro Rail Corporation Limited", "public_transport": "station", "railway": "station", "ref": "CDLI", "station": "subway", "subway": "yes", "wikidata": "Q28172603", "wikipedia": "en:Chirag Delhi metro station"}}, {"type": "node", "id": 4676900918, "lat": 28.6319032, "lon": 77.310718, "tags": {"name": "IP Extension", "name:hi": "\u0906\u0908\u092a\u0940 \u090f\u0915\u094d\u0938\u091f\u0947\u0902\u0936\u0928", "network": "Delhi Metro", "note": "Contributors are requested to not edit the \"network\" and the \"operator\" tags. (2023/06/22)", "operator": "Delhi Metro Rail Corporation Limited", "public_transport": "station", "railway": "station", "station": "subway", "subway": "yes", "wikidata": "Q55421833", "wikipedia": "en:IP Extension metro station"}}, {"type": "node", "id": 4676900919, "lat": 28.6536001, "lon": 77.2957877, "tags": {"name": "Karkarduma Court", "name:hi": "\u0915\u0921\u093c\u0915\u0921\u093c\u0921\u0942\u092e\u093e \u0915\u094b\u0930\u094d\u091f", "network": "Delhi Metro", "note": "Contributors are requested to not edit the \"network\" and the \"operator\" tags. (2023/06/22)", "operator": "Delhi Metro Rail Corporation Limited", "public_transport": "station", "railway": "station", "station": "subway", "subway": "yes", "wheelchair": "yes", "wikidata": "Q28172856", "wikipedia": "en:Karkarduma Court metro station"}}, {"type": "node", "id": 4676900933, "lat": 28.6200437, "lon": 77.3054069, "tags": {"description": "metro station", "name": "East Vinod Nagar - Mayur Vihar - II", "name:hi": "\u092a\u0942\u0930\u094d\u0935\u0940 \u0935\u093f\u0928\u094b\u0926 \u0928\u0917\u0930 - \u092e\u092f\u0942\u0930 \u0935\u093f\u0939\u093e\u0930 - II", "network": "Delhi Metro", "note": "Contributors are requested to not edit the \"network\" and the \"operator\" tags. (2023/06/22)", "operator": "Delhi Metro Rail Corporation Limited", "public_transport": "station", "railway": "station", "station": "subway", "subway": "yes", "wikidata": "Q30646922", "wikipedia": "en:East Vinod Nagar - Mayur Vihar-II metro station"}}, {"type": "node", "id": 4676901224, "lat": 28.624979, "lon": 77.3044525, "tags": {"name": "Mandawali - West Vinod Nagar", "name:hi": "\u092e\u0902\u0921\u093e\u0935\u0932\u0940- \u0935\u0947\u0938\u094d\u091f \u0935\u093f\u0928\u094b\u0926 \u0928\u0917\u0930", "network": "Delhi Metro", "note": "Contributors are requested to not edit the \"network\" and the \"operator\" tags. (2023/06/22)", "operator": "Delhi Metro Rail Corporation Limited", "public_transport": "station", "railway": "station", "station": "subway", "subway": "yes", "wikidata": "Q55421849", "wikipedia": "en:Mandawali - West Vinod Nagar metro station"}}, {"type": "node", "id": 4942491560, "lat": 28.6186755, "lon": 77.2789897}, {"type": "node", "id": 4942491561, "lat": 28.6183892, "lon": 77.2792747}, {"type": "node", "id": 4942491562, "lat": 28.6176843, "lon": 77.2797939}, {"type": "node", "id": 4942491563, "lat": 28.6176519, "lon": 77.2797368}, {"type": "node", "id": 4942491564, "lat": 28.6172789, "lon": 77.2800115}, {"type": "node", "id": 4942491565, "lat": 28.6171905, "lon": 77.2798556}, {"type": "node", "id": 4942491566, "lat": 28.6175746, "lon": 77.2795727}, {"type": "node", "id": 4942491567, "lat": 28.6175437, "lon": 77.2795182}, {"type": "node", "id": 4942491568, "lat": 28.6182367, "lon": 77.2790078}, {"type": "node", "id": 4942491569, "lat": 28.6182719, "lon": 77.2790698}, {"type": "node", "id": 4942491570, "lat": 28.6185886, "lon": 77.2788365}, {"type": "node", "id": 5215706767, "lat": 28.7298286, "lon": 77.1995697, "tags": {"name": "Burari", "name:hi": "\u092c\u0941\u0930\u093e\u0921\u093c\u0940", "network": "Delhi Metro", "note": "Contributors are requested to not edit the \"network\" and the \"operator\" tags. (2023/06/22)", "operator": "Delhi Metro Rail Corporation Limited", "public_transport": "station", "railway": "station", "station": "subway", "subway": "yes"}}, {"type": "node", "id": 5215706768, "lat": 28.7211162, "lon": 77.223995, "tags": {"construction": "station", "name": "Jagatpur Village", "name:ur": "", "network": "Delhi Metro", "note": "Contributors are requested to not edit the \"network\" and the \"operator\" tags. (2023/06/22)", "operator": "Delhi Metro Rail Corporation Limited", "public_transport": "station", "railway": "station", "station": "subway", "subway": "yes"}}, {"type": "node", "id": 5215706769, "lat": 28.7057735, "lon": 77.2524068, "tags": {"construction": "station", "name": "Khajoorikhas", "network": "Delhi Metro", "note": "Contributors are requested to not edit the \"network\" and the \"operator\" tags. (2023/06/22)", "operator": "Delhi Metro Rail Corporation Limited", "public_transport": "station", "railway": "station", "station": "subway", "subway": "yes"}}, {"type": "node", "id": 5215706793, "lat": 28.7102223, "lon": 77.2274526, "tags": {"construction": "station", "name": "Surghat", "network": "Delhi Metro", "note": "Contributors are requested to not edit the \"network\" and the \"operator\" tags. (2023/06/22)", "operator": "Delhi Metro Rail Corporation Limited", "public_transport": "station", "railway": "station", "station": "subway", "subway": "yes"}}, {"type": "node", "id": 5397665618, "lat": 28.7299398, "lon": 77.1491044, "tags": {"name": "Haiderpur Badli Mor", "name:hi": "\u0939\u0948\u0926\u0930\u092a\u0941\u0930 \u092c\u093e\u0926\u0932\u0940 \u092e\u094b\u095c", "name:ur": "\u062d\u06cc\u062f\u0631 \u067e\u0648\u0631 \u0628\u0627\u062f\u0644\u06cc \u0645\u0648\u0691", "network": "Delhi Metro", "note": "Contributors are requested to not edit the \"network\" and the \"operator\" tags. (2023/06/22)", "operator": "Delhi Metro Rail Corporation Limited", "public_transport": "station", "railway": "station", "ref": "BIMR", "station": "subway", "subway": "yes", "wikidata": "Q26964765", "wikipedia": "en:Haiderpur Badli Mor metro station"}}, {"type": "node", "id": 5453646586, "lat": 28.6158794, "lon": 77.2122822, "tags": {"name": "Central Secretariat", "name:hi": "\u0938\u0947\u0902\u091f\u094d\u0930\u0932 \u0938\u0947\u0915\u094d\u0930\u0947\u091f\u0947\u0930\u093f\u090f\u091f", "name:kn": "\u0cb8\u0cc6\u0c82\u0c9f\u0ccd\u0cb0\u0cb2\u0ccd \u0cb8\u0cc6\u0c95\u0ccd\u0cb0\u0cc6\u0c9f\u0cb0\u0cbf\u0cb8\u0ccd\u0c9f\u0ccd", "network": "Delhi Metro", "network:wikidata": "Q271195", "note": "Contributors are requested to not edit the \"network\" and the \"operator\" tags. (2023/06/22)", "operator": "Delhi Metro Rail Corporation Limited", "operator:wikidata": "Q1029339", "public_transport": "station", "railway": "station", "ref": "CTST", "station": "subway", "subway": "yes", "train": "yes", "wikidata": "Q5061812", "wikipedia": "en:Central Secretariat metro station"}}, {"type": "node", "id": 5561849777, "lat": 28.4936597, "lon": 77.3030191}, {"type": "node", "id": 5561849778, "lat": 28.493673, "lon": 77.3030866}, {"type": "node", "id": 5561849779, "lat": 28.4929185, "lon": 77.3032794}, {"type": "node", "id": 5561849780, "lat": 28.4929057, "lon": 77.3032142}, {"type": "node", "id": 5561849781, "lat": 28.492659, "lon": 77.3032773}, {"type": "node", "id": 5561849782, "lat": 28.4926235, "lon": 77.3030971}, {"type": "node", "id": 5561849783, "lat": 28.4928557, "lon": 77.3030377}, {"type": "node", "id": 5561849784, "lat": 28.4928436, "lon": 77.3029765}, {"type": "node", "id": 5561849785, "lat": 28.4936081, "lon": 77.3027811}, {"type": "node", "id": 5561849786, "lat": 28.4936231, "lon": 77.3028573}, {"type": "node", "id": 5561849787, "lat": 28.4938601, "lon": 77.3027967}, {"type": "node", "id": 5561849788, "lat": 28.4938923, "lon": 77.3029596}, {"type": "node", "id": 5737166729, "lat": 28.6913435, "lon": 76.9977711, "tags": {"internet_access": "no", "name": "Ghevra", "network": "IR", "operator": "NR", "railway": "station", "ref": "GHE", "wikidata": "Q63356263"}}, {"type": "node", "id": 5737166756, "lat": 28.6862813, "lon": 77.0573608, "tags": {"internet_access": "no", "name": "Nangloi", "name:hi": "\u0928\u093e\u0901\u0917\u0932\u094b\u0908", "name:ur": "\u0646\u0627\u0646\u06af\u0644\u0648\u0626\u06cc", "network": "IR", "operator": "NR", "public_transport": "station", "railway": "station", "ref": "NNO", "train": "yes", "wikidata": "Q24948642"}}, {"type": "node", "id": 5737168025, "lat": 28.586443, "lon": 77.0494433, "tags": {"name": "Dwarka Sector 11", "name:hi": "\u0926\u094d\u0935\u093e\u0930\u0915\u093e \u0938\u0947\u0915\u094d\u091f\u0930 11", "network": "Delhi Metro", "note": "Contributors are requested to not edit the \"network\" and the \"operator\" tags. (2023/06/22)", "operator": "Delhi Metro Rail Corporation Limited", "public_transport": "station", "railway": "station", "ref": "DSE", "station": "subway", "subway": "yes", "wheelchair": "limited", "wikidata": "Q5317945", "wikipedia": "en:Dwarka Sector 11 metro station"}}, {"type": "node", "id": 5781445033, "lat": 28.6424955, "lon": 77.1782756, "tags": {"name": "Rajendra Place", "name:hi": "\u0930\u093e\u091c\u0947\u0902\u0926\u094d\u0930 \u092a\u094d\u0932\u0947\u0938", "name:kn": "\u0cb0\u0cbe\u0c9c\u0cc7\u0c82\u0ca6\u0ccd\u0cb0 \u0caa\u0ccd\u0caf\u0cbe\u0cb2\u0cc7\u0cb8\u0ccd", "network": "Delhi Metro", "note": "Contributors are requested to not edit the \"network\" and the \"operator\" tags. (2023/06/23)", "operator": "Delhi Metro Rail Corporation Limited", "railway": "station", "station": "subway", "wikidata": "Q7286033", "wikipedia": "en:Rajendra Place metro station"}}, {"type": "node", "id": 5795235047, "lat": 28.5460584, "lon": 77.2515057, "tags": {"name": "Nehru Enclave", "name:hi": "\u0928\u0947\u0939\u0930\u0942 \u090f\u0928\u094d\u0915\u094d\u0932\u0947\u0935", "network": "Delhi Metro", "note": "Contributors are requested to not edit the \"network\" and the \"operator\" tags. (2023/06/22)", "operator": "Delhi Metro Rail Corporation Limited", "public_transport": "station", "railway": "station", "ref": "NUEE", "station": "subway", "subway": "yes", "wikidata": "Q28172606", "wikipedia": "en:Nehru Enclave metro station"}}, {"type": "node", "id": 5854161857, "lat": 28.658087, "lon": 77.2170087, "tags": {"internet_access": "no", "name": "Sadar Bazar", "name:hi": "\u0938\u0926\u0930 \u092c\u093e\u091c\u093c\u093e\u0930", "name:ur": "\u0635\u062f\u0631 \u0628\u0627\u0632\u0627\u0631", "network": "IR", "operator": "NR", "public_transport": "station", "railway": "station", "ref": "DSB", "train": "yes", "wheelchair": "yes", "wikidata": "Q24947943", "wikipedia": "en:Sadar Bazar railway station"}}, {"type": "node", "id": 6049373291, "lat": 28.721381, "lon": 77.2894599, "tags": {"name": "Shiv Vihar", "name:hi": "\u0936\u093f\u0935 \u0935\u093f\u0939\u093e\u0930", "network": "Delhi Metro", "note": "Contributors are requested to not edit the \"network\" and the \"operator\" tags. (2023/06/22)", "operator": "Delhi Metro Rail Corporation Limited", "public_transport": "station", "railway": "station", "station": "subway", "subway": "yes"}}, {"type": "node", "id": 6049373293, "lat": 28.7024752, "lon": 77.2861253, "tags": {"name": "Gokulpuri", "name:hi": "\u0917\u094b\u0915\u0941\u0932\u092a\u0941\u0930\u0940", "name:ur": "\u06af\u0648\u06a9\u0644 \u067e\u0648\u0631\u06cc", "network": "Delhi Metro", "note": "Contributors are requested to not edit the \"network\" and the \"operator\" tags. (2023/06/22)", "operator": "Delhi Metro Rail Corporation Limited", "public_transport": "station", "railway": "station", "station": "subway", "subway": "yes", "wikidata": "Q28172730", "wikipedia": "en:Gokulpuri metro station"}}, {"type": "node", "id": 6049373294, "lat": 28.6920781, "lon": 77.2796973, "tags": {"name": "Maujpur-Babarpur", "name:hi": "\u092e\u094c\u091c\u092a\u0941\u0930 - \u092c\u093e\u092c\u0930\u092a\u0941\u0930", "network": "Delhi Metro", "note": "Contributors are requested to not edit the \"network\" and the \"operator\" tags. (2023/06/22)", "operator": "Delhi Metro Rail Corporation Limited", "public_transport": "station", "railway": "station", "station": "subway", "subway": "yes", "wikidata": "Q28172749", "wikipedia": "en:Maujpur - Babarpur metro station"}}, {"type": "node", "id": 6049373295, "lat": 28.6826822, "lon": 77.2748055, "tags": {"name": "Jaffrabad", "name:hi": "\u091c\u093e\u092b\u0930\u093e\u092c\u093e\u0926", "name:ur": "\u062c\u0639\u0641\u0631 \u0622\u0628\u0627\u062f", "network": "Delhi Metro", "note": "Contributors are requested to not edit the \"network\" and the \"operator\" tags. (2023/06/22)", "operator": "Delhi Metro Rail Corporation Limited", "public_transport": "station", "railway": "station", "station": "subway", "subway": "yes", "wikidata": "Q28172732", "wikipedia": "en:Jaffrabad metro station"}}, {"type": "node", "id": 6049373296, "lat": 28.6724018, "lon": 77.2770239, "tags": {"name": "Welcome (Pink Line)", "name:hi": "\u0935\u0947\u0932\u0915\u092e", "network": "Delhi Metro", "note": "Contributors are requested to not edit the \"network\" and the \"operator\" tags. (2023/06/22)", "operator": "Delhi Metro Rail Corporation Limited", "public_transport": "station", "railway": "station", "station": "subway", "subway": "yes", "wikidata": "Q11288582", "wikipedia": "en:Welcome metro station"}}, {"type": "node", "id": 6049373297, "lat": 28.6646764, "lon": 77.2848431, "tags": {"name": "East Azad Nagar", "name:hi": "\u0906\u091c\u093e\u0926 \u0928\u0917\u0930 \u092a\u0942\u0930\u094d\u0935", "name:ur": "\u0645\u0634\u0631\u0642\u06cc \u0622\u0632\u0627\u062f \u0646\u06af\u0631", "network": "Delhi Metro", "note": "Contributors are requested to not edit the \"network\" and the \"operator\" tags. (2023/06/22)", "operator": "Delhi Metro Rail Corporation Limited", "public_transport": "station", "railway": "station", "station": "subway", "subway": "yes", "wikidata": "Q28172733", "wikipedia": "en:East Azad Nagar metro station"}}, {"type": "node", "id": 6049373298, "lat": 28.6578127, "lon": 77.2901199, "tags": {"name": "Krishna Nagar", "name:hi": "\u0915\u0943\u0937\u094d\u0923\u093e \u0928\u0917\u0930", "name:ur": "\u06a9\u0631\u0634\u0646\u0627 \u0646\u06af\u0631", "network": "Delhi Metro", "note": "Contributors are requested to not edit the \"network\" and the \"operator\" tags. (2023/06/22)", "operator": "Delhi Metro Rail Corporation Limited", "public_transport": "station", "railway": "station", "station": "subway", "subway": "yes", "wikidata": "Q28178869", "wikipedia": "en:Krishna Nagar metro station (Delhi)"}}, {"type": "node", "id": 6131069513, "lat": 28.6419258, "lon": 77.2217499, "tags": {"alt_name:ar": "\u0646\u064a\u0648\u062f\u0644\u0647\u064a", "alt_name:ks": "\u0646\u0654\u0648 \u062f\u0650\u0644", "alt_name:ur": "\u0646\u0626\u06cc \u062f\u0644\u06cc;\u0646\u0626\u06cc \u062f\u0650\u0644\u0651\u06cc", "internet_access": "wlan", "long_name": "\u0646\u0626\u06cc \u062f\u06c1\u0644\u06cc \u0631\u06cc\u0644\u0648\u06d2 \u0627\u0633\u0679\u06cc\u0634\u0646", "long_name:ur": "\u0646\u0626\u06cc \u062f\u06c1\u0644\u06cc \u0631\u06cc\u0644\u0648\u06d2 \u0627\u0633\u0679\u06cc\u0634\u0646", "name": "New Delhi", "name:ar": "\u062f\u0644\u0647\u064a \u0627\u0644\u062c\u062f\u064a\u062f\u0629", "name:az-Arab": "\u06cc\u0626\u0646\u06cc \u062f\u0647\u0644\u06cc", "name:azb": "\u06cc\u0626\u0646\u06cc \u062f\u0647\u0644\u06cc", "name:de": "Neu-Delhi", "name:el": "\u039d\u03ad\u03bf \u0394\u03b5\u03bb\u03c7\u03af", "name:es": "Nueva Delhi", "name:grc": "\u039d\u03b5\u03bf\u03b4\u03b5\u03bb\u03af\u03c2", "name:hi": "\u0928\u0908 \u0926\u093f\u0932\u094d\u0932\u0940", "name:hy": "\u0546\u0575\u0578\u0582 \u0534\u0565\u056c\u056b", "name:hyw": "\u0546\u056b\u0582 \u054f\u0565\u056c\u0570\u056b", "name:ks": "\u0646\u0654\u0648 \u062f\u0644\u06be\u06cc", "name:ml": "\u0d28\u0d4d\u0d2f\u0d42 \u0d21\u0d46\u0d7d\u0d39\u0d3f", "name:pa": "\u0a28\u0a35\u0a40\u0a02 \u0a26\u0a3f\u0a71\u0a32\u0a40", "name:ug": "\u064a\u06d0\u06ad\u0649 \u062f\u06d0\u06be\u0644\u0649", "name:ur": "\u0646\u0626\u06cc \u062f\u06c1\u0644\u06cc", "network": "IR", "operator": "NR", "public_transport": "station", "railway": "station", "ref": "NDLS", "train": "yes", "wheelchair": "yes", "wikimedia_commons": "File:New Delhi railway station from Ajmeri Gate side.jpg", "wikipedia": "en:New Delhi railway station", "wikipedia:ur": "\u0646\u0626\u06cc \u062f\u06c1\u0644\u06cc \u0631\u06cc\u0644\u0648\u06d2 \u0627\u0633\u0679\u06cc\u0634\u0646"}}, {"type": "node", "id": 6172619603, "lat": 28.5549465, "lon": 77.2653829}, {"type": "node", "id": 6172619606, "lat": 28.5541637, "lon": 77.2646637}, {"type": "node", "id": 6172619607, "lat": 28.554133, "lon": 77.2646986}, {"type": "node", "id": 6172619608, "lat": 28.5541519, "lon": 77.264716}, {"type": "node", "id": 6172619609, "lat": 28.5541825, "lon": 77.2648783}, {"type": "node", "id": 6172619610, "lat": 28.5542402, "lon": 77.2650151}, {"type": "node", "id": 6172619611, "lat": 28.5543675, "lon": 77.2650956}, {"type": "node", "id": 6172619612, "lat": 28.5546195, "lon": 77.2652484}, {"type": "node", "id": 6172619613, "lat": 28.5546973, "lon": 77.2652404}, {"type": "node", "id": 6172619614, "lat": 28.5548822, "lon": 77.265453}, {"type": "node", "id": 6172619615, "lat": 28.5549882, "lon": 77.265337}, {"type": "node", "id": 6172619616, "lat": 28.5548251, "lon": 77.2651385}, {"type": "node", "id": 6172619617, "lat": 28.5548363, "lon": 77.2651076}, {"type": "node", "id": 6172619618, "lat": 28.5547939, "lon": 77.2650352}, {"type": "node", "id": 6172619619, "lat": 28.5548021, "lon": 77.2650138}, {"type": "node", "id": 6172619620, "lat": 28.5546078, "lon": 77.2647938}, {"type": "node", "id": 6172619621, "lat": 28.5544169, "lon": 77.2646047}, {"type": "node", "id": 6172619622, "lat": 28.5543781, "lon": 77.2646087}, {"type": "node", "id": 6172619623, "lat": 28.5542379, "lon": 77.2644612}, {"type": "node", "id": 6172619624, "lat": 28.5541001, "lon": 77.2643016}, {"type": "node", "id": 6172619625, "lat": 28.5541307, "lon": 77.264602}, {"type": "node", "id": 6172619626, "lat": 28.5539952, "lon": 77.2644156}, {"type": "node", "id": 6179179025, "lat": 28.521168, "lon": 77.2022237, "tags": {"colour": "yellow", "name": "Saket", "name:hi": "\u0938\u093e\u0915\u0947\u0924", "name:kn": "\u0cb8\u0cbe\u0c95\u0cc7\u0ca4\u0ccd", "name:ur": "\u0633\u0627\u06a9\u06cc\u062a", "network": "Delhi Metro", "note": "Contributors are requested to not edit the \"network\" and the \"operator\" tags. (2023/06/22)", "operator": "Delhi Metro Rail Corporation Limited", "payment:cards": "yes", "payment:cash": "yes", "payment:coins": "yes", "payment:contactless": "yes", "payment:electronic_purses": "yes", "public_transport": "station", "railway": "station", "ref": "SAKT", "station": "subway", "subway": "yes", "wikidata": "Q7402900", "wikipedia": "en:Saket metro station"}}, {"type": "node", "id": 6196100475, "lat": 28.7244312, "lon": 77.181964, "tags": {"name": "Majlis Park", "name:hi": "\u092e\u091c\u0932\u093f\u0938 \u092a\u093e\u0930\u094d\u0915", "network": "Delhi Metro", "note": "Contributors are requested to not edit the \"network\" and the \"operator\" tags. (2023/06/22)", "operator": "Delhi Metro Rail Corporation Limited", "public_transport": "station", "public_transport:version": "2", "railway": "station", "station": "subway", "subway": "yes", "wikidata": "Q28172619", "wikipedia": "en:Majlis Park metro station"}}, {"type": "node", "id": 6196100477, "lat": 28.565871, "lon": 77.2492973, "tags": {"name": "Vinobapuri", "name:hi": "\u0935\u093f\u0928\u094b\u092c\u093e\u092a\u0941\u0930\u0940", "name:ur": "\u0648\u0646\u0648\u0628\u0627 \u067e\u0648\u0631\u06cc", "network": "Delhi Metro", "note": "Contributors are requested to not edit the \"network\" and the \"operator\" tags. (2023/06/22)", "operator": "Delhi Metro Rail Corporation Limited", "public_transport": "station", "railway": "station", "ref": "VNPR", "station": "subway", "subway": "yes", "wikidata": "Q28172738", "wikipedia": "en:Vinobapuri metro station"}}, {"type": "node", "id": 6196100478, "lat": 28.6036425, "lon": 77.2909319, "tags": {"name": "Mayur Vihar - I (Pink Line)", "name:hi": "\u092e\u092f\u0942\u0930 \u0935\u093f\u0939\u093e\u0930-\u0967", "network": "Delhi Metro", "note": "Contributors are requested to not edit the \"network\" and the \"operator\" tags. (2023/06/22)", "operator": "Delhi Metro Rail Corporation Limited", "public_transport": "station", "railway": "station", "station": "subway", "subway": "yes", "toilets:wheelchair": "no", "wheelchair": "yes", "wikidata": "Q6798106", "wikipedia": "en:Mayur Vihar-I metro station"}}, {"type": "node", "id": 6196100479, "lat": 28.6058619, "lon": 77.2987023, "tags": {"name": "Mayur Vihar Pocket 1", "name:hi": "\u092e\u092f\u0942\u0930 \u0935\u093f\u0939\u093e\u0930 \u092a\u0949\u0915\u0947\u091f-1", "network": "Delhi Metro", "note": "Contributors are requested to not edit the \"network\" and the \"operator\" tags. (2023/06/22)", "operator": "Delhi Metro Rail Corporation Limited", "public_transport": "station", "railway": "station", "station": "subway", "subway": "yes"}}, {"type": "node", "id": 6196100480, "lat": 28.5887494, "lon": 77.2572494, "tags": {"departures_board": "realtime", "name": "Sarai Kale Khan - Nizamuddin", "name:hi": "\u0938\u0930\u093e\u092f \u0915\u093e\u0932\u0947 \u0916\u093e\u0902 - \u0928\u093f\u091c\u093e\u092e\u0941\u0926\u094d\u0926\u0940\u0928", "name:ur": "\u0633\u0631\u0627\u0626\u06d2 \u06a9\u0627\u0644\u06d2 \u062e\u0627\u06ba - \u0646\u0638\u0627\u0645 \u0627\u0644\u062f\u06cc\u0646", "network": "Delhi Metro", "note": "Contributors are requested to not edit the \"network\" and the \"operator\" tags. (2023/06/22)", "operator": "Delhi Metro Rail Corporation Limited", "public_transport": "station", "railway": "station", "ref": "NIZM", "shelter": "yes", "station": "subway", "subway": "yes", "wheelchair": "yes", "wikidata": "Q28172665", "wikipedia": "en:Sarai Kale Khan - Nizamuddin metro station"}}, {"type": "node", "id": 6196100481, "lat": 28.5724231, "lon": 77.2585979, "tags": {"name": "Ashram", "name:hi": "\u0906\u0936\u094d\u0930\u092e", "name:ur": "\u0622\u0634\u0631\u0645", "network": "Delhi Metro", "note": "Contributors are requested to not edit the \"network\" and the \"operator\" tags. (2023/06/22)", "operator": "Delhi Metro Rail Corporation Limited", "public_transport": "station", "railway": "station", "ref": "AHRM", "station": "subway", "subway": "yes", "wikidata": "Q28172734", "wikipedia": "en:Ashram metro station"}}, {"type": "node", "id": 6200733576, "lat": 28.5021088, "lon": 77.2993773}, {"type": "node", "id": 6200733577, "lat": 28.5021522, "lon": 77.2990544}, {"type": "node", "id": 6200733578, "lat": 28.5027162, "lon": 77.2995443}, {"type": "node", "id": 6200733579, "lat": 28.5028774, "lon": 77.2994065}, {"type": "node", "id": 6200733580, "lat": 28.5018731, "lon": 77.2990237}, {"type": "node", "id": 6200733581, "lat": 28.5030646, "lon": 77.299493}, {"type": "node", "id": 6200733582, "lat": 28.5018236, "lon": 77.2991744}, {"type": "node", "id": 6200733583, "lat": 28.5030107, "lon": 77.2996589}, {"type": "node", "id": 6200733584, "lat": 28.5023526, "lon": 77.2991364}, {"type": "node", "id": 6200733885, "lat": 28.5027071, "lon": 77.2992706}, {"type": "node", "id": 6200733886, "lat": 28.5028018, "lon": 77.2992012}, {"type": "node", "id": 6200733887, "lat": 28.5022978, "lon": 77.2989846}, {"type": "node", "id": 6200733888, "lat": 28.5021845, "lon": 77.2989511}, {"type": "node", "id": 6200733889, "lat": 28.5028657, "lon": 77.2992273}, {"type": "node", "id": 6200733890, "lat": 28.5024012, "lon": 77.2994935}, {"type": "node", "id": 6200733891, "lat": 28.5026851, "lon": 77.2996196}, {"type": "node", "id": 6202059588, "lat": 28.5889767, "lon": 77.1696073}, {"type": "node", "id": 6202059589, "lat": 28.5895837, "lon": 77.1691627}, {"type": "node", "id": 6202059591, "lat": 28.5896816, "lon": 77.1693455}, {"type": "node", "id": 6202059593, "lat": 28.5899618, "lon": 77.1691545}, {"type": "node", "id": 6202059594, "lat": 28.5887759, "lon": 77.169744}, {"type": "node", "id": 6202059595, "lat": 28.5898653, "lon": 77.1689708}, {"type": "node", "id": 6202059596, "lat": 28.5890816, "lon": 77.1697508}, {"type": "node", "id": 6202059597, "lat": 28.589109, "lon": 77.1698029}, {"type": "node", "id": 6202059598, "lat": 28.5888591, "lon": 77.1699024}, {"type": "node", "id": 6202059599, "lat": 28.5897366, "lon": 77.1694502}, {"type": "node", "id": 6202059600, "lat": 28.5889264, "lon": 77.1695114}, {"type": "node", "id": 6202059601, "lat": 28.5894366, "lon": 77.1688826}, {"type": "node", "id": 6388555278, "lat": 28.6028727, "lon": 77.1076284, "tags": {"internet_access": "no", "name": "Nasirpur", "name:ur": "\u0646\u0635\u06cc\u0631 \u067e\u0648\u0631", "network": "IR", "operator": "NR", "public_transport": "station", "railway": "station", "ref": "NSN", "train": "yes", "wikidata": "Q63361484"}}, {"type": "node", "id": 6453544485, "lat": 28.5785326, "lon": 77.175741, "tags": {"name": "Sir M. Vishweshwaraiah Moti Bagh", "name:hi": "\u0938\u0930 \u090f\u092e. \u0935\u093f\u0936\u094d\u0935\u0947\u0936\u094d\u0935\u0930\u092f\u094d\u092f\u093e \u092e\u094b\u0924\u0940 \u092c\u093e\u0917", "network": "Delhi Metro", "note": "Contributors are requested to not edit the \"network\" and the \"operator\" tags. (2023/06/22)", "operator": "Delhi Metro Rail Corporation Limited", "public_transport": "station", "railway": "station", "ref": "SVMB", "station": "subway", "subway": "yes", "wikidata": "Q30591952", "wikipedia": "en:Sir Vishweshwaraiah Moti Bagh metro station"}}, {"type": "node", "id": 6453544486, "lat": 28.5702618, "lon": 77.1878709, "tags": {"name": "Bhikaji Cama Place", "name:hi": "\u092d\u0940\u0915\u093e\u091c\u0940 \u0915\u093e\u092e\u093e \u092a\u094d\u0932\u0947\u0938", "name:ur": "\u0628\u06be\u06cc\u06a9\u0627\u062c\u06cc \u06a9\u0627\u0645\u0627 \u067e\u0644\u06cc\u0633 \u06af\u06cc\u0644", "network": "Delhi Metro", "note": "Contributors are requested to not edit the \"network\" and the \"operator\" tags. (2023/06/22)", "operator": "Delhi Metro Rail Corporation Limited", "public_transport": "station", "railway": "station", "ref": "BKCP", "station": "subway", "subway": "yes", "wikidata": "Q28172666", "wikipedia": "en:Bhikaji Cama Place metro station"}}, {"type": "node", "id": 6453544487, "lat": 28.5736524, "lon": 77.2075857, "tags": {"name": "Dilli Haat - INA (Pink Line)", "name:hi": "\u0926\u093f\u0932\u094d\u0932\u0940 \u0939\u093e\u091f - \u0906\u0908 \u090f\u0928 \u090f", "network": "Delhi Metro", "note": "Contributors are requested to not edit the \"network\" and the \"operator\" tags. (2023/06/22)", "operator": "Delhi Metro Rail Corporation Limited", "public_transport": "station", "railway": "station", "ref": "INA", "station": "subway", "subway": "yes", "wikidata": "Q17055892", "wikipedia": "en:Dilli Haat - INA metro station"}}, {"type": "node", "id": 6453544488, "lat": 28.56958, "lon": 77.2385055, "tags": {"name": "Lajpat Nagar (Pink Line)", "name:ar": "\u0644\u0627\u062c\u0628\u062a \u0646\u063a\u0631", "name:hi": "\u0932\u093e\u091c\u092a\u0924 \u0928\u0917\u0930", "name:ur": "\u0644\u0627\u062c\u067e\u062a \u0646\u06af\u0631", "network": "Delhi Metro", "note": "Contributors are requested to not edit the \"network\" and the \"operator\" tags. (2023/06/22)", "operator": "Delhi Metro Rail Corporation Limited", "public_transport": "station", "railway": "station", "station": "subway", "subway": "yes", "wikidata": "Q6474492", "wikipedia": "en:Lajpat Nagar metro station"}}, {"type": "node", "id": 6453544489, "lat": 28.5685664, "lon": 77.2205677, "tags": {"name": "South Extension", "name:hi": "\u0938\u093e\u0909\u0925 \u090f\u0915\u094d\u0938\u091f\u0947\u0902\u0936\u0928", "network": "Delhi Metro", "note": "Contributors are requested to not edit the \"network\" and the \"operator\" tags. (2023/06/22)", "operator": "Delhi Metro Rail Corporation Limited", "public_transport": "station", "railway": "station", "station": "subway", "subway": "yes", "wikidata": "Q28172660", "wikipedia": "en:South Extension metro station"}}, {"type": "node", "id": 6453544492, "lat": 28.6371795, "lon": 77.1297333, "tags": {"name": "Mayapuri", "name:hi": "\u092e\u093e\u092f\u093e\u092a\u0941\u0930\u0940", "name:ur": "\u0645\u0627\u06cc\u06c1 \u067e\u0648\u0631\u06cc", "network": "Delhi Metro", "note": "Contributors are requested to not edit the \"network\" and the \"operator\" tags. (2023/06/22)", "operator": "Delhi Metro Rail Corporation Limited", "public_transport": "station", "railway": "station", "station": "subway", "subway": "yes", "wikidata": "Q28172745", "wikipedia": "en:Mayapuri metro station"}}, {"type": "node", "id": 6453992648, "lat": 28.6511896, "lon": 77.1242597, "tags": {"name": "Rajouri Garden (Pink Line)", "name:hi": "\u0930\u093e\u091c\u094c\u0930\u0940 \u0917\u093e\u0930\u094d\u0921\u0928", "network": "Delhi Metro", "note": "Contributors are requested to not edit the \"network\" and the \"operator\" tags. (2023/06/22)", "operator": "Delhi Metro Rail Corporation Limited", "public_transport": "station", "railway": "station", "station": "subway", "subway": "yes", "wikidata": "Q7286379", "wikipedia": "en:Rajouri Garden metro station"}}, {"type": "node", "id": 6453992649, "lat": 28.6490563, "lon": 77.1227198, "tags": {"name": "Rajouri Garden (Blue Line)", "name:hi": "\u0930\u093e\u091c\u094c\u0930\u0940 \u0917\u093e\u0930\u094d\u0921\u0928", "network": "Delhi Metro", "note": "Contributors are requested to not edit the \"network\" and the \"operator\" tags. (2023/06/22)", "operator": "Delhi Metro Rail Corporation Limited", "public_transport": "station", "railway": "station", "station": "subway", "subway": "yes", "wheelchair": "limited", "wikidata": "Q7286379", "wikipedia": "en:Rajouri Garden metro station"}}, {"type": "node", "id": 6453992650, "lat": 28.6947146, "lon": 77.1542607, "tags": {"name": "Netaji Subhash Place (Pink Line)", "name:hi": "\u0928\u0947\u0924\u093e\u091c\u0940 \u0938\u0941\u092d\u093e\u0937 \u092a\u094d\u0932\u0947\u0938", "network": "Delhi Metro", "note": "Contributors are requested to not edit the \"network\" and the \"operator\" tags. (2023/06/22)", "operator": "Delhi Metro Rail Corporation Limited", "public_transport": "station", "railway": "station", "station": "subway", "subway": "yes", "wikidata": "Q6998648", "wikipedia": "en:Netaji Subhash Place metro station"}}, {"type": "node", "id": 6453992651, "lat": 28.7057821, "lon": 77.1819488, "tags": {"name": "Azadpur (Pink Line)", "name:hi": "\u0906\u091c\u093e\u0926\u092a\u0941\u0930", "network": "Delhi Metro", "note": "Contributors are requested to not edit the \"network\" and the \"operator\" tags. (2023/06/22)", "operator": "Delhi Metro Rail Corporation Limited", "public_transport": "station", "railway": "station", "ref": "AZU", "station": "subway", "subway": "yes", "wikidata": "Q4832101", "wikipedia": "en:Azadpur metro station"}}, {"type": "node", "id": 6453992652, "lat": 28.7070448, "lon": 77.1803722, "tags": {"name": "Azadpur (Yellow Line)", "name:hi": "\u0906\u091c\u093e\u0926\u092a\u0941\u0930", "network": "Delhi Metro", "note": "Contributors are requested to not edit the \"network\" and the \"operator\" tags. (2023/06/22)", "operator": "Delhi Metro Rail Corporation Limited", "public_transport": "station", "railway": "station", "ref": "AZU", "station": "subway", "subway": "yes", "wikidata": "Q4832101", "wikipedia": "en:Azadpur metro station"}}, {"type": "node", "id": 6453992653, "lat": 28.5741769, "lon": 77.2093017, "tags": {"name": "Dilli Haat - INA (Yellow Line)", "name:hi": "\u0926\u093f\u0932\u094d\u0932\u0940 \u0939\u093e\u091f - \u0906\u0908 \u090f\u0928 \u090f", "network": "Delhi Metro", "note": "Contributors are requested to not edit the \"network\" and the \"operator\" tags. (2023/06/22)", "operator": "Delhi Metro Rail Corporation Limited", "public_transport": "station", "railway": "station", "station": "subway", "subway": "yes", "wikidata": "Q17055892", "wikipedia": "en:Dilli Haat - INA metro station"}}, {"type": "node", "id": 6453992654, "lat": 28.5705968, "lon": 77.2364011, "tags": {"name": "Lajpat Nagar (Violet Line)", "name:ar": "\u0644\u0627\u062c\u0628\u062a \u0646\u063a\u0631", "name:hi": "\u0932\u093e\u091c\u092a\u0924 \u0928\u0917\u0930", "name:ur": "\u0644\u0627\u062c\u067e\u062a \u0646\u06af\u0631", "network": "Delhi Metro", "note": "Contributors are requested to not edit the \"network\" and the \"operator\" tags. (2023/06/22)", "operator": "Delhi Metro Rail Corporation Limited", "public_transport": "station", "railway": "station", "station": "subway", "subway": "yes", "wikidata": "Q6474492", "wikipedia": "en:Lajpat Nagar metro station"}}, {"type": "node", "id": 6454015469, "lat": 28.6466157, "lon": 77.3155317, "tags": {"name": "Anand Vihar (Pink Line)", "name:hi": "\u0906\u0928\u0902\u0926 \u0935\u093f\u0939\u093e\u0930", "name:kn": "\u0c86\u0ca8\u0c82\u0ca6\u0ccd \u0cb5\u0cbf\u0cb9\u0cbe\u0cb0\u0ccd", "network": "Delhi Metro", "note": "Contributors are requested to not edit the \"network\" and the \"operator\" tags. (2023/06/22)", "operator": "Delhi Metro Rail Corporation Limited", "public_transport": "station", "railway": "station", "ref": "ANVR", "station": "subway", "subway": "yes", "wikidata": "Q4751288", "wikipedia": "en:Anand Vihar metro station"}}, {"type": "node", "id": 6458130120, "lat": 28.6483176, "lon": 77.3055178, "tags": {"name": "Karkarduma (Blue Line)", "name:hi": "\u0915\u0921\u093c\u0915\u0921\u093c\u0921\u0942\u092e\u093e", "name:kn": "\u0c95\u0cb0\u0ccd\u0c95\u0cb0\u0ccd\u0ca6\u0cc1\u0cae", "network": "Delhi Metro", "note": "Contributors are requested to not edit the \"network\" and the \"operator\" tags. (2023/06/22)", "operator": "Delhi Metro Rail Corporation Limited", "public_transport": "station", "railway": "station", "station": "subway", "subway": "yes", "wikidata": "Q6371278", "wikipedia": "en:Karkarduma metro station"}}, {"type": "node", "id": 6458165644, "lat": 28.6086201, "lon": 77.1404187, "tags": {"alt_name": "Delhi Cantonment", "alt_name:ur": "\u062f\u0644\u06cc \u0686\u06be\u0627\u0624\u0646\u06cc;\u062f\u06c1\u0644\u06cc \u06a9\u06cc\u0646\u0679;\u062f\u0644\u06cc \u06a9\u06cc\u0646\u0679", "name": "Delhi Cantt", "name:hi": "\u0926\u093f\u0932\u094d\u0932\u0940 \u0915\u0948\u0902\u091f", "name:ur": "\u062f\u06c1\u0644\u06cc \u0686\u06be\u0627\u0624\u0646\u06cc", "network": "Delhi Metro", "note": "Contributors are requested to not edit the \"network\" and the \"operator\" tags. (2023/06/22)", "operator": "Delhi Metro Rail Corporation Limited", "public_transport": "station", "public_transport:version": "2", "railway": "station", "station": "subway", "subway": "yes", "wikidata": "Q28172737", "wikipedia": "en:Delhi Cantonment metro station"}}, {"type": "node", "id": 6458202840, "lat": 28.7019574, "lon": 77.1654317, "tags": {"name": "Shalimar Bagh", "name:hi": "\u0936\u093e\u0932\u0940\u092e\u093e\u0930 \u092c\u093e\u0917", "name:ur": "\u0634\u0627\u0644\u06cc\u0645\u0627\u0631 \u0628\u0627\u063a", "network": "Delhi Metro", "note": "Contributors are requested to not edit the \"network\" and the \"operator\" tags. (2023/06/22)", "operator": "Delhi Metro Rail Corporation Limited", "public_transport": "station", "railway": "station", "ref": "SMBG", "station": "subway", "subway": "yes", "wikidata": "Q28172657", "wikipedia": "en:Shalimar Bagh metro station"}}, {"type": "node", "id": 6458202841, "lat": 28.6857668, "lon": 77.1496094, "tags": {"name": "Shakurpur", "name:hi": "\u0936\u0915\u0942\u0930\u092a\u0941\u0930", "name:ur": "\u0634\u06a9\u0648\u0631 \u067e\u0648\u0631", "network": "Delhi Metro", "note": "Contributors are requested to not edit the \"network\" and the \"operator\" tags. (2023/06/22)", "operator": "Delhi Metro Rail Corporation Limited", "public_transport": "station", "railway": "station", "station": "subway", "subway": "yes", "wikidata": "Q28172658", "wikipedia": "en:Shakurpur metro station"}}, {"type": "node", "id": 6458202842, "lat": 28.575817, "lon": 77.1980786, "tags": {"name": "Sarojini Nagar", "name:hi": "\u0938\u0930\u094b\u091c\u093f\u0928\u0940 \u0928\u0917\u0930", "name:ur": "\u0633\u0631\u0648\u062c\u0646\u06cc \u0646\u06af\u0631", "network": "Delhi Metro", "note": "Contributors are requested to not edit the \"network\" and the \"operator\" tags. (2023/06/22)", "operator": "Delhi Metro Rail Corporation Limited", "public_transport": "station", "railway": "station", "ref": "SOJI", "station": "subway", "subway": "yes", "wikidata": "Q28172662", "wikipedia": "en:Sarojini Nagar metro station"}}, {"type": "node", "id": 6458202843, "lat": 28.6727671, "lon": 77.1391976, "tags": {"name": "Punjabi Bagh West", "name:hi": "\u092a\u0902\u091c\u093e\u092c\u0940 \u092c\u093e\u0917 \u092a\u0936\u094d\u091a\u093f\u092e", "network": "Delhi Metro", "note": "Contributors are requested to not edit the \"network\" and the \"operator\" tags. (2023/06/22)", "operator": "Delhi Metro Rail Corporation Limited", "public_transport": "station", "railway": "station", "ref": "PBGW", "station": "subway", "subway": "yes", "wikidata": "Q28178866", "wikipedia": "en:Punjabi Bagh West metro station"}}, {"type": "node", "id": 6458202844, "lat": 28.6243852, "lon": 77.1364438, "tags": {"name": "Naraina Vihar", "name:hi": "\u0928\u093e\u0930\u093e\u092f\u0923\u093e \u0935\u093f\u0939\u093e\u0930", "name:ur": "\u0646\u0627\u0631\u0627\u0626\u0646\u0627 \u0648\u06c1\u0627\u0631", "network": "Delhi Metro", "note": "Contributors are requested to not edit the \"network\" and the \"operator\" tags. (2023/06/22)", "operator": "Delhi Metro Rail Corporation Limited", "public_transport": "station", "railway": "station", "ref": "NAVR", "station": "subway", "subway": "yes", "wikidata": "Q28172747", "wikipedia": "en:Naraina Vihar metro station"}}, {"type": "node", "id": 6458202845, "lat": 28.6580737, "lon": 77.1272678, "tags": {"name": "ESI - Basaidarapur", "name:hi": "\u0908 \u090f\u0938 \u0906\u0908 - \u092c\u0938\u0948\u0926\u0930\u093e\u092a\u0941\u0930", "network": "Delhi Metro", "note": "Contributors are requested to not edit the \"network\" and the \"operator\" tags. (2023/06/22)", "operator": "Delhi Metro Rail Corporation Limited", "public_transport": "station", "public_transport:version": "2", "railway": "station", "ref": "ESIH", "station": "subway", "subway": "yes", "wikidata": "Q28172735", "wikipedia": "en:ESI - Basaidarapur metro station"}}, {"type": "node", "id": 6465991434, "lat": 28.6727066, "lon": 77.1691872, "tags": {"alt_name": "Trinagar", "name": "Inderlok (Green Line)", "name:hi": "\u0907\u0902\u0926\u094d\u0930\u0932\u094b\u0915", "network": "Delhi Metro", "note": "Contributors are requested to not edit the \"network\" and the \"operator\" tags. (2023/06/22)", "operator": "Delhi Metro Rail Corporation Limited", "public_transport": "station", "railway": "station", "station": "subway", "subway": "yes", "wikidata": "Q4207366", "wikipedia": "en:Inderlok metro station"}}, {"type": "node", "id": 6465991435, "lat": 28.6716045, "lon": 77.155291, "tags": {"name": "Ashok Park Main", "name:hi": "\u0905\u0936\u094b\u0915 \u092a\u093e\u0930\u094d\u0915 \u092e\u0947\u0928", "name:ur": "\u0627\u0634\u0648\u06a9 \u067e\u0627\u0631\u06a9 \u0645\u06cc\u0646", "network": "Delhi Metro", "note": "Contributors are requested to not edit the \"network\" and the \"operator\" tags. (2023/06/22)", "operator": "Delhi Metro Rail Corporation Limited", "public_transport": "station", "railway": "station", "station": "subway", "subway": "yes", "wikidata": "Q4207354", "wikipedia": "en:Ashok Park Main metro station"}}, {"type": "node", "id": 6465991436, "lat": 28.672995, "lon": 77.1461239, "tags": {"name": "Punjabi Bagh", "name:hi": "\u092a\u0902\u091c\u093e\u092c\u0940 \u092c\u093e\u0917\u093c", "name:ur": "\u067e\u0646\u062c\u0627\u0628\u06cc \u0628\u0627\u063a", "network": "Delhi Metro", "note": "Contributors are requested to not edit the \"network\" and the \"operator\" tags. (2023/06/22)", "operator": "Delhi Metro Rail Corporation Limited", "public_transport": "station", "railway": "station", "station": "subway", "subway": "yes", "wikidata": "Q7141807", "wikipedia": "en:Punjabi Bagh metro station"}}, {"type": "node", "id": 6465991437, "lat": 28.6750317, "lon": 77.1304722, "tags": {"name": "Shivaji Park", "name:hi": "\u0936\u093f\u0935\u093e\u091c\u0940 \u092a\u093e\u0930\u094d\u0915", "name:ur": "\u0634\u06cc\u0648\u0627\u062c\u06cc \u067e\u0627\u0631\u06a9", "network": "Delhi Metro", "note": "Contributors are requested to not edit the \"network\" and the \"operator\" tags. (2023/06/22)", "operator": "Delhi Metro Rail Corporation Limited", "public_transport": "station", "railway": "station", "station": "subway", "subway": "yes", "wikidata": "Q7499286", "wikipedia": "en:Shivaji Park metro station"}}, {"type": "node", "id": 6465991438, "lat": 28.6764752, "lon": 77.1193599, "tags": {"name": "Madipur", "name:hi": "\u092e\u093e\u0926\u0940\u092a\u0941\u0930", "name:ur": "\u0645\u0627\u062f\u06cc \u067e\u0648\u0631", "network": "Delhi Metro", "note": "Contributors are requested to not edit the \"network\" and the \"operator\" tags. (2023/06/22)", "operator": "Delhi Metro Rail Corporation Limited", "public_transport": "station", "railway": "station", "station": "subway", "subway": "yes", "wikidata": "Q6727807", "wikipedia": "en:Madipur metro station"}}, {"type": "node", "id": 6465991439, "lat": 28.6773563, "lon": 77.1122823, "tags": {"name": "Paschim Vihar East", "name:hi": "\u092a\u0936\u094d\u091a\u093f\u092e \u0935\u093f\u0939\u093e\u0930 \u092a\u0942\u0930\u094d\u0935", "network": "Delhi Metro", "note": "Contributors are requested to not edit the \"network\" and the \"operator\" tags. (2023/06/22)", "operator": "Delhi Metro Rail Corporation Limited", "public_transport": "station", "railway": "station", "station": "subway", "subway": "yes", "wikidata": "Q20718098", "wikipedia": "en:Paschim Vihar East metro station"}}, {"type": "node", "id": 6465991441, "lat": 28.6798074, "lon": 77.0926793, "tags": {"name": "Peera Garhi", "name:hi": "\u092a\u0940\u0930\u093e\u0917\u0922\u093c\u0940", "name:ur": "\u067e\u06cc\u0631\u0627 \u06af\u0691\u06be\u06cc", "network": "Delhi Metro", "note": "Contributors are requested to not edit the \"network\" and the \"operator\" tags. (2023/06/22)", "operator": "Delhi Metro Rail Corporation Limited", "public_transport": "station", "railway": "station", "station": "subway", "subway": "yes", "wikidata": "Q7160416", "wikipedia": "en:Peera Garhi metro station"}}, {"type": "node", "id": 6465991442, "lat": 28.681103, "lon": 77.0808492, "tags": {"name": "Udyog Nagar", "name:hi": "\u0909\u0926\u094d\u092f\u094b\u0917 \u0928\u0917\u0930", "name:ur": "\u0627\u064f\u062f\u06cc\u0648\u06af \u0646\u06af\u0631", "network": "Delhi Metro", "note": "Contributors are requested to not edit the \"network\" and the \"operator\" tags. (2023/06/22)", "operator": "Delhi Metro Rail Corporation Limited", "public_transport": "station", "railway": "station", "station": "subway", "subway": "yes", "wikidata": "Q7877393", "wikipedia": "en:Udyog Nagar metro station"}}, {"type": "node", "id": 6465991443, "lat": 28.6818775, "lon": 77.074, "tags": {"name": "Surajmal Stadium", "name:hi": "\u0938\u0942\u0930\u091c\u092e\u0932 \u0938\u094d\u091f\u0947\u0921\u093f\u092f\u092e", "network": "Delhi Metro", "note": "Contributors are requested to not edit the \"network\" and the \"operator\" tags. (2023/06/22)", "operator": "Delhi Metro Rail Corporation Limited", "public_transport": "station", "railway": "station", "station": "subway", "subway": "yes", "wikidata": "Q7645348", "wikipedia": "en:Surajmal Stadium metro station"}}, {"type": "node", "id": 6465991444, "lat": 28.6824007, "lon": 77.0647319, "tags": {"name": "Nangloi", "name:hi": "\u0928\u093e\u0902\u0917\u0932\u094b\u0908", "name:ur": "\u0646\u0627\u0646\u06af\u0644\u0648\u0626\u06cc", "network": "Delhi Metro", "note": "Contributors are requested to not edit the \"network\" and the \"operator\" tags. (2023/06/22)", "operator": "Delhi Metro Rail Corporation Limited", "public_transport": "station", "railway": "station", "station": "subway", "subway": "yes", "wikidata": "Q6963528", "wikipedia": "en:Nangloi metro station"}}, {"type": "node", "id": 6465991445, "lat": 28.6822009, "lon": 77.0562463, "tags": {"name": "Nangloi Railway Station", "name:hi": "\u0928\u093e\u0902\u0917\u0932\u094b\u0908 \u0930\u0947\u0932\u0935\u0947 \u0938\u094d\u091f\u0947\u0936\u0928", "name:ur": "\u0646\u0627\u0646\u06af\u0644\u0648\u0626\u06cc", "network": "Delhi Metro", "note": "Contributors are requested to not edit the \"network\" and the \"operator\" tags. (2023/06/22)", "operator": "Delhi Metro Rail Corporation Limited", "public_transport": "station", "railway": "station", "station": "subway", "subway": "yes", "wikidata": "Q6963529", "wikipedia": "en:Nangloi Railway Station metro station"}}, {"type": "node", "id": 6465991446, "lat": 28.6823085, "lon": 77.0439437, "tags": {"name": "Rajdhani Park", "name:hi": "\u0930\u093e\u091c\u0927\u093e\u0928\u0940 \u092a\u093e\u0930\u094d\u0915", "network": "Delhi Metro", "note": "Contributors are requested to not edit the \"network\" and the \"operator\" tags. (2023/06/22)", "operator": "Delhi Metro Rail Corporation Limited", "public_transport": "station", "railway": "station", "station": "subway", "subway": "yes", "wikidata": "Q7285915", "wikipedia": "en:Rajdhani Park metro station"}}, {"type": "node", "id": 6465991447, "lat": 28.6824341, "lon": 77.0305741, "tags": {"name": "Mundka", "name:hi": "\u092e\u0941\u0923\u094d\u0921\u0915\u093e", "name:ur": "\u0645\u064f\u0646\u0688\u06a9\u0627", "network": "Delhi Metro", "note": "Contributors are requested to not edit the \"network\" and the \"operator\" tags. (2023/06/22)", "operator": "Delhi Metro Rail Corporation Limited", "public_transport": "station", "railway": "station", "ref": "MQC", "station": "subway", "subway": "yes", "wikidata": "Q6935833", "wikipedia": "en:Mundka metro station"}}, {"type": "node", "id": 6465991448, "lat": 28.6833701, "lon": 77.0171485, "tags": {"name": "Mundka Industrial Area", "name:hi": "\u092e\u0941\u0923\u094d\u0921\u0915\u093e \u0914\u0926\u094d\u092f\u094b\u0917\u093f\u0915 \u0915\u094d\u0937\u0947\u0924\u094d\u0930", "network": "Delhi Metro", "note": "Contributors are requested to not edit the \"network\" and the \"operator\" tags. (2023/06/22)", "operator": "Delhi Metro Rail Corporation Limited", "public_transport": "station", "railway": "station", "station": "subway", "subway": "yes", "wikidata": "Q30591459", "wikipedia": "en:Mundka Industrial Area metro station"}}, {"type": "node", "id": 6465991449, "lat": 28.6852384, "lon": 76.9961591, "tags": {"name": "Ghevra", "name:hi": "\u0918\u0947\u0935\u0930\u093e \u092e\u0947\u091f\u094d\u0930\u094b \u0938\u094d\u091f\u0947\u0936\u0928", "network": "Delhi Metro", "note": "Contributors are requested to not edit the \"network\" and the \"operator\" tags. (2023/06/22)", "operator": "Delhi Metro Rail Corporation Limited", "public_transport": "station", "railway": "station", "station": "subway", "subway": "yes", "wikidata": "Q30591460", "wikipedia": "en:Ghevra metro station"}}, {"type": "node", "id": 6465991450, "lat": 28.6868849, "lon": 76.9772082, "tags": {"name": "Tikri Kalan", "name:hi": "\u091f\u0940\u0915\u0930\u0940 \u0915\u0932\u093e\u0901", "network": "Delhi Metro", "note": "Contributors are requested to not edit the \"network\" and the \"operator\" tags. (2023/06/22)", "operator": "Delhi Metro Rail Corporation Limited", "public_transport": "station", "railway": "station", "station": "subway", "subway": "yes", "wikidata": "Q30591461", "wikipedia": "en:Tikri Kalan metro station"}}, {"type": "node", "id": 6465991451, "lat": 28.6880254, "lon": 76.9640828, "tags": {"name": "Tikri Border", "name:hi": "\u091f\u0940\u0915\u0930\u0940 \u092c\u0949\u0930\u094d\u0921\u0930", "network": "Delhi Metro", "note": "Contributors are requested to not edit the \"network\" and the \"operator\" tags. (2023/06/22)", "operator": "Delhi Metro Rail Corporation Limited", "public_transport": "station", "railway": "station", "station": "subway", "subway": "yes", "wikidata": "Q30591462", "wikipedia": "en:Tikri Border metro station"}}, {"type": "node", "id": 6485904396, "lat": 28.5470121, "lon": 77.1945546, "tags": {"layer": "-1", "name": "IIT Delhi", "name:hi": "\u0906\u0908\u0906\u0908\u091f\u0940 \u0926\u093f\u0932\u094d\u0932\u0940", "network": "Delhi Metro", "note": "Contributors are requested to not edit the \"network\" and the \"operator\" tags. (2023/06/22)", "operator": "Delhi Metro Rail Corporation Limited", "public_transport": "station", "railway": "station", "ref": "IIT", "station": "subway", "subway": "yes", "wikidata": "Q28169973", "wikipedia": "en:IIT Delhi metro station"}}, {"type": "node", "id": 6515969511, "lat": 28.618408, "lon": 77.2791867, "tags": {"network": "Delhi Metro", "note": "Contributors are requested to not edit the \"network\" and the \"operator\" tags. (2023/06/23)", "operator": "Delhi Metro Rail Corporation Limited", "railway": "subway_entrance", "subway": "yes"}}, {"type": "node", "id": 6537193575, "lat": 28.6206019, "lon": 77.249551, "tags": {"name": "Indraprastha", "name:hi": "\u0907\u0902\u0926\u094d\u0930\u092a\u094d\u0930\u0938\u094d\u0925", "name:kn": "\u0c87\u0c82\u0ca6\u0ccd\u0cb0 \u0caa\u0ccd\u0cb0\u0cb8\u0ccd\u0ca4", "name:ur": "\u0627\u0646\u062f\u0631 \u067e\u0631\u0633\u062a\u06be", "network": "Delhi Metro", "network:wikidata": "Q271195", "note": "Contributors are requested to not edit the \"network\" and the \"operator\" tags. (2023/06/22)", "operator": "Delhi Metro Rail Corporation Limited", "operator:wikidata": "Q1029339", "public_transport": "station", "railway": "station", "station": "subway", "subway": "yes", "wikidata": "Q6026956", "wikipedia": "en:Indraprastha metro station"}}, {"type": "node", "id": 6537193576, "lat": 28.6233124, "lon": 77.268013, "tags": {"name": "Yamuna Bank", "name:hi": "\u092f\u092e\u0941\u0928\u093e \u092c\u0948\u0902\u0915", "name:kn": "\u0caf\u0cae\u0cc1\u0ca8\u0cbe \u0cac\u0ccd\u0caf\u0cbe\u0c82\u0c95\u0ccd", "name:ur": "\u06cc\u0645\u0646\u0627 \u0628\u06cc\u0646\u06a9", "network": "Delhi Metro", "note": "Contributors are requested to not edit the \"network\" and the \"operator\" tags. (2023/06/22)", "operator": "Delhi Metro Rail Corporation Limited", "public_transport": "station", "railway": "station", "station": "subway", "subway": "yes", "wikidata": "Q12525001", "wikipedia": "en:Yamuna Bank metro station"}}, {"type": "node", "id": 6537196022, "lat": 28.5890885, "lon": 77.3015085, "tags": {"layer": "1", "name": "New Ashok Nagar", "name:hi": "\u0928\u092f\u093e \u0905\u0936\u094b\u0915 \u0928\u0917\u0930", "name:ur": "\u0646\u06cc\u0648 \u0627\u0634\u0648\u06a9 \u0646\u06af\u0631", "network": "Delhi Metro", "note": "Contributors are requested to not edit the \"network\" and the \"operator\" tags. (2023/06/22)", "operator": "Delhi Metro Rail Corporation Limited", "public_transport": "station", "railway": "station", "ref": "NAGR", "station": "subway", "subway": "yes", "wikidata": "Q7005382", "wikipedia": "en:New Ashok Nagar metro station"}}, {"type": "node", "id": 6537347632, "lat": 28.6179996, "lon": 77.2795616, "tags": {"network": "Delhi Metro", "note": "Contributors are requested to not edit the \"network\" and the \"operator\" tags. (2023/06/23)", "operator": "Delhi Metro Rail Corporation Limited", "railway": "subway_entrance", "ref": "1", "subway": "yes"}}, {"type": "node", "id": 6537356066, "lat": 28.6181209, "lon": 77.2794723, "tags": {"network": "Delhi Metro", "note": "Contributors are requested to not edit the \"network\" and the \"operator\" tags. (2023/06/23)", "operator": "Delhi Metro Rail Corporation Limited", "railway": "subway_entrance", "ref": "1", "subway": "yes"}}, {"type": "node", "id": 6537356677, "lat": 28.6174776, "lon": 77.2798652}, {"type": "node", "id": 6537402811, "lat": 28.5933974, "lon": 77.2949777}, {"type": "node", "id": 6537402812, "lat": 28.5949506, "lon": 77.2941811}, {"type": "node", "id": 6537402813, "lat": 28.5949855, "lon": 77.2942692}, {"type": "node", "id": 6537402814, "lat": 28.5934323, "lon": 77.2950658}, {"type": "node", "id": 6539745133, "lat": 28.604064, "lon": 77.2895398, "tags": {"name": "Mayur Vihar - I (Blue Line)", "name:hi": "\u092e\u092f\u0942\u0930 \u0935\u093f\u0939\u093e\u0930-\u0967", "network": "Delhi Metro", "note": "Contributors are requested to not edit the \"network\" and the \"operator\" tags. (2023/06/22)", "operator": "Delhi Metro Rail Corporation Limited", "public_transport": "station", "railway": "station", "station": "subway", "subway": "yes", "toilets:wheelchair": "no", "wheelchair": "yes", "wikidata": "Q6798106", "wikipedia": "en:Mayur Vihar-I metro station"}}, {"type": "node", "id": 6539894848, "lat": 28.5922362, "lon": 77.0407315, "tags": {"name": "Dwarka Sector 12", "name:hi": "\u0926\u094d\u0935\u093e\u0930\u0915\u093e \u0938\u0947\u0915\u094d\u091f\u0930 12", "network": "Delhi Metro", "note": "Contributors are requested to not edit the \"network\" and the \"operator\" tags. (2023/06/22)", "operator": "Delhi Metro Rail Corporation Limited", "public_transport": "station", "railway": "station", "ref": "DSW", "station": "subway", "subway": "yes", "wikidata": "Q5317946", "wikipedia": "en:Dwarka Sector 12 metro station"}}, {"type": "node", "id": 6539894849, "lat": 28.6443188, "lon": 77.1999165, "tags": {"name": "Jhandewalan", "name:hi": "\u091d\u0902\u0921\u0947\u0935\u093e\u0932\u093e\u0928", "name:kn": "\u0c9d\u0cbe\u0c82\u0ca1\u0cc6\u0cb5\u0cbe\u0cb2\u0ca8\u0ccd", "network": "Delhi Metro", "network:wikidata": "Q271195", "note": "Contributors are requested to not edit the \"network\" and the \"operator\" tags. (2023/06/22)", "operator": "Delhi Metro Rail Corporation Limited", "operator:wikidata": "Q1029339", "public_transport": "station", "railway": "station", "station": "subway", "subway": "yes", "wikidata": "Q6190836", "wikipedia": "en:Jhandewalan metro station"}}, {"type": "node", "id": 6539894850, "lat": 28.6392436, "lon": 77.2085787, "tags": {"name": "Ramakrishna Ashram Marg", "name:hi": "\u0930\u093e\u092e\u0915\u0943\u0937\u094d\u0923 \u0906\u0936\u094d\u0930\u092e \u092e\u093e\u0930\u094d\u0917", "network": "Delhi Metro", "network:wikidata": "Q271195", "note": "Contributors are requested to not edit the \"network\" and the \"operator\" tags. (2023/06/22)", "operator": "Delhi Metro Rail Corporation Limited", "operator:wikidata": "Q1029339", "public_transport": "station", "railway": "station", "station": "subway", "subway": "yes", "wikidata": "Q7288800", "wikipedia": "en:Ramakrishna Ashram Marg metro station"}}, {"type": "node", "id": 6539894851, "lat": 28.6327062, "lon": 77.2193123, "tags": {"name": "Rajiv Chowk", "name:hi": "\u0930\u093e\u091c\u0940\u0935 \u091a\u094c\u0915", "name:kn": "\u0cb0\u0cbe\u0c9c\u0cc0\u0cb5\u0ccd \u0c9a\u0ccc\u0c95\u0ccd", "name:ur": "\u0631\u0627\u062c\u06cc\u0648 \u0686\u0648\u06a9", "network": "Delhi Metro", "network:wikidata": "Q271195", "note": "Contributors are requested to not edit the \"network\" and the \"operator\" tags. (2023/06/22)", "operator": "Delhi Metro Rail Corporation Limited", "operator:wikidata": "Q1029339", "public_transport": "station", "railway": "station", "ref": "RCK", "station": "subway", "subway": "yes", "wikidata": "Q7286183"}}, {"type": "node", "id": 6539894855, "lat": 28.6297676, "lon": 77.2250046, "tags": {"name": "Barakhambha Road", "name:hi": "\u092c\u093e\u0930\u093e\u0916\u092e\u094d\u092c\u093e \u0930\u094b\u0921", "network": "Delhi Metro", "network:wikidata": "Q271195", "note": "Contributors are requested to not edit the \"network\" and the \"operator\" tags. (2023/06/22)", "operator": "Delhi Metro Rail Corporation Limited", "operator:wikidata": "Q1029339", "public_transport": "station", "railway": "station", "station": "subway", "subway": "yes", "wikidata": "Q4858265", "wikipedia": "en:Barakhamba Road metro station"}}, {"type": "node", "id": 6539894856, "lat": 28.6256122, "lon": 77.2341966, "tags": {"name": "Mandi House", "name:hi": "\u092e\u0902\u0921\u0940 \u0939\u093e\u0909\u0938", "name:kn": "\u0cae\u0c82\u0ca1\u0cbf \u0cb9\u0ccc\u0cb8\u0ccd", "network": "Delhi Metro", "note": "Contributors are requested to not edit the \"network\" and the \"operator\" tags. (2023/06/22)", "operator": "Delhi Metro Rail Corporation Limited", "public_transport": "station", "railway": "station", "ref": "MDHS", "station": "subway", "subway": "yes", "wikidata": "Q6748047", "wikipedia": "en:Mandi House metro station"}}, {"type": "node", "id": 6539894857, "lat": 28.6234752, "lon": 77.2425278, "tags": {"name": "Supreme Court", "name:bn": "\u09aa\u09cd\u09b0\u0997\u09a4\u09bf \u09ae\u09af\u09bc\u09a6\u09be\u09a8 \u09ae\u09c7\u099f\u09cd\u09b0\u09cb \u09b8\u09cd\u099f\u09c7\u09b6\u09a8", "name:hi": "\u092a\u094d\u0930\u0917\u0924\u093f \u092e\u0948\u0926\u093e\u0928", "network": "Delhi Metro", "note": "Contributors are requested to not edit the \"network\" and the \"operator\" tags. (2023/06/22)", "operator": "Delhi Metro Rail Corporation Limited", "public_transport": "station", "railway": "station", "station": "subway", "subway": "yes", "wheelchair": "yes", "wikidata": "Q7237614", "wikipedia": "en:Supreme Court metro station"}}, {"type": "node", "id": 6539894859, "lat": 28.5810577, "lon": 77.0574996, "tags": {"name": "Dwarka Sector 10", "name:hi": "\u0926\u094d\u0935\u093e\u0930\u0915\u093e \u0938\u0947\u0915\u094d\u091f\u0930 10", "network": "Delhi Metro", "note": "Contributors are requested to not edit the \"network\" and the \"operator\" tags. (2023/06/22)", "operator": "Delhi Metro Rail Corporation Limited", "public_transport": "station", "railway": "station", "ref": "DST", "station": "subway", "subway": "yes", "wheelchair": "limited", "wikidata": "Q5317944", "wikipedia": "en:Dwarka Sector 10 metro station"}}, {"type": "node", "id": 6539894860, "lat": 28.574272, "lon": 77.0653316, "tags": {"name": "Dwarka Sector 9", "name:hi": "\u0926\u094d\u0935\u093e\u0930\u0915\u093e \u0938\u0947\u0915\u094d\u091f\u0930 9", "network": "Delhi Metro", "note": "Contributors are requested to not edit the \"network\" and the \"operator\" tags. (2023/06/22)", "operator": "Delhi Metro Rail Corporation Limited", "public_transport": "station", "railway": "station", "ref": "DSN", "station": "subway", "subway": "yes", "wheelchair": "limited", "wikidata": "Q5317951", "wikipedia": "en:Dwarka Sector 9 metro station"}}, {"type": "node", "id": 6539894861, "lat": 28.5656109, "lon": 77.0670366, "tags": {"name": "Dwarka Sector 8", "name:hi": "\u0926\u094d\u0935\u093e\u0930\u0915\u093e \u0938\u0947\u0915\u094d\u091f\u0930 8", "network": "Delhi Metro", "note": "Contributors are requested to not edit the \"network\" and the \"operator\" tags. (2023/06/22)", "operator": "Delhi Metro Rail Corporation Limited", "public_transport": "station", "railway": "station", "ref": "DSET", "station": "subway", "subway": "yes", "wikidata": "Q5317949", "wikipedia": "en:Dwarka Sector 8 metro station"}}, {"type": "node", "id": 6539894862, "lat": 28.5519218, "lon": 77.0585605, "tags": {"name": "Dwarka Sector 21", "name:hi": "\u0926\u094d\u0935\u093e\u0930\u0915\u093e \u0938\u0947\u0915\u094d\u091f\u0930 21", "network": "Delhi Metro", "network:wikidata": "Q271195", "note": "Contributors are requested to not edit the \"network\" and the \"operator\" tags. (2023/06/22)", "operator": "Delhi Metro Rail Corporation Limited", "operator:wikidata": "Q1029339", "public_transport": "station", "railway": "station", "ref": "DSTO", "station": "subway", "subway": "yes", "wikidata": "Q5317950", "wikipedia": "en:Dwarka Sector 21 metro station"}}, {"type": "node", "id": 6541854249, "lat": 28.6295839, "lon": 77.078085, "tags": {"name": "Janakpuri West", "name:hi": "\u091c\u0928\u0915\u092a\u0941\u0930\u0940 \u0935\u0947\u0938\u094d\u091f", "network": "Delhi Metro", "note": "Contributors are requested to not edit the \"network\" and the \"operator\" tags. (2023/06/22)", "operator": "Delhi Metro Rail Corporation Limited", "public_transport": "station", "railway": "station", "ref": "JPW", "station": "subway", "subway": "yes", "wikidata": "Q6150737", "wikipedia": "en:Janakpuri West metro station"}}, {"type": "node", "id": 6541854250, "lat": 28.6248465, "lon": 77.0652861, "tags": {"name": "Uttam Nagar East", "name:hi": "\u0909\u0924\u094d\u0924\u092e \u0928\u0917\u0930 \u092a\u0942\u0930\u094d\u0935", "network": "Delhi Metro", "note": "Contributors are requested to not edit the \"network\" and the \"operator\" tags. (2023/06/22)", "operator": "Delhi Metro Rail Corporation Limited", "public_transport": "station", "railway": "station", "station": "subway", "subway": "yes", "wikidata": "Q11288933", "wikipedia": "en:Uttam Nagar East metro station"}}, {"type": "node", "id": 6541854251, "lat": 28.621757, "lon": 77.0557122, "tags": {"name": "Uttam Nagar West", "name:hi": "\u0909\u0924\u094d\u0924\u092e \u0928\u0917\u0930 \u092a\u0936\u094d\u091a\u093f\u092e", "network": "Delhi Metro", "note": "Contributors are requested to not edit the \"network\" and the \"operator\" tags. (2023/06/22)", "operator": "Delhi Metro Rail Corporation Limited", "public_transport": "station", "railway": "station", "station": "subway", "subway": "yes", "wikidata": "Q11288937", "wikipedia": "en:Uttam Nagar West metro station"}}, {"type": "node", "id": 6541854252, "lat": 28.6202758, "lon": 77.0450787, "tags": {"name": "Nawada", "name:hi": "\u0928\u0935\u093e\u0926\u093e", "name:ur": "\u0646\u0648\u0627\u062f\u06c1", "network": "Delhi Metro", "note": "Contributors are requested to not edit the \"network\" and the \"operator\" tags. (2023/06/22)", "operator": "Delhi Metro Rail Corporation Limited", "public_transport": "station", "railway": "station", "station": "subway", "subway": "yes", "wikidata": "Q6982809", "wikipedia": "en:Nawada metro station"}}, {"type": "node", "id": 6541854253, "lat": 28.61931, "lon": 77.0332792, "tags": {"name": "Dwarka Mor", "name:hi": "\u0926\u094d\u0935\u093e\u0930\u0915\u093e \u092e\u094b\u0921\u093c", "name:ur": "\u062f\u0648\u0627\u0631\u06a9\u0627 \u0645\u0648\u0691", "network": "Delhi Metro", "note": "Contributors are requested to not edit the \"network\" and the \"operator\" tags. (2023/06/22)", "operator": "Delhi Metro Rail Corporation Limited", "public_transport": "station", "railway": "station", "ref": "DM", "station": "subway", "subway": "yes", "wheelchair": "limited", "wikidata": "Q5317939", "wikipedia": "en:Dwarka Mor metro station"}}, {"type": "node", "id": 6541854254, "lat": 28.6158874, "lon": 77.0224342, "tags": {"name": "Dwarka (Grey Line)", "name:hi": "\u0926\u094d\u0935\u093e\u0930\u0915\u093e", "network": "Delhi Metro", "note": "Contributors are requested to not edit the \"network\" and the \"operator\" tags. (2023/06/22)", "operator": "Delhi Metro Rail Corporation Limited", "public_transport": "station", "railway": "station", "ref": "DW", "station": "subway", "subway": "yes", "wikidata": "Q5317936", "wikipedia": "en:Dwarka metro station"}}, {"type": "node", "id": 6541854255, "lat": 28.6149362, "lon": 77.0227628, "tags": {"name": "Dwarka (Blue Line)", "name:hi": "\u0926\u094d\u0935\u093e\u0930\u0915\u093e", "network": "Delhi Metro", "note": "Contributors are requested to not edit the \"network\" and the \"operator\" tags. (2023/06/22)", "operator": "Delhi Metro Rail Corporation Limited", "public_transport": "station", "railway": "station", "ref": "DW", "station": "subway", "subway": "yes", "wheelchair": "limited", "wikidata": "Q5317936", "wikipedia": "en:Dwarka metro station"}}, {"type": "node", "id": 6541854256, "lat": 28.6022218, "lon": 77.0259765, "tags": {"name": "Dwarka Sector 14", "name:hi": "\u0926\u094d\u0935\u093e\u0930\u0915\u093e \u0938\u0947\u0915\u094d\u091f\u0930 14", "network": "Delhi Metro", "note": "Contributors are requested to not edit the \"network\" and the \"operator\" tags. (2023/06/22)", "operator": "Delhi Metro Rail Corporation Limited", "public_transport": "station", "railway": "station", "ref": "DSFN", "station": "subway", "subway": "yes", "wheelchair": "limited", "wikidata": "Q5317948", "wikipedia": "en:Dwarka Sector 14 metro station"}}, {"type": "node", "id": 6541854257, "lat": 28.597009, "lon": 77.0335407, "tags": {"name": "Dwarka Sector 13", "name:hi": "\u0926\u094d\u0935\u093e\u0930\u0915\u093e \u0938\u0947\u0915\u094d\u091f\u0930 13", "network": "Delhi Metro", "note": "Contributors are requested to not edit the \"network\" and the \"operator\" tags. (2023/06/22)", "operator": "Delhi Metro Rail Corporation Limited", "public_transport": "station", "railway": "station", "ref": "DSTN", "station": "subway", "subway": "yes", "wikidata": "Q5317947", "wikipedia": "en:Dwarka Sector 13 metro station"}}, {"type": "node", "id": 6547772109, "lat": 28.7165805, "lon": 77.1704223, "tags": {"name": "Adarsh Nagar", "name:hi": "\u0906\u0926\u0930\u094d\u0936 \u0928\u0917\u0930", "name:ur": "\u0622\u062f\u0631\u0634 \u0646\u06af\u0631", "network": "Delhi Metro", "note": "Contributors are requested to not edit the \"network\" and the \"operator\" tags. (2023/06/22)", "operator": "Delhi Metro Rail Corporation Limited", "public_transport": "station", "railway": "station", "station": "subway", "subway": "yes", "type": "public_transport", "wikidata": "Q4680843", "wikipedia": "en:Adarsh Nagar metro station"}}, {"type": "node", "id": 6547772110, "lat": 28.7259717, "lon": 77.162658, "tags": {"name": "Jahangirpuri", "name:hi": "\u091c\u0939\u093e\u0902\u0917\u0940\u0930\u092a\u0941\u0930\u0940", "name:ur": "\u062c\u06c1\u0627\u0646\u06af\u06cc\u0631 \u067e\u0648\u0631\u06cc", "network": "Delhi Metro", "note": "Contributors are requested to not edit the \"network\" and the \"operator\" tags. (2023/06/22)", "operator": "Delhi Metro Rail Corporation Limited", "public_transport": "station", "railway": "station", "station": "subway", "subway": "yes", "wikidata": "Q862598", "wikipedia": "en:Jahangirpuri metro station"}}, {"type": "node", "id": 6548798518, "lat": 28.633021, "lon": 77.086757, "tags": {"name": "Janakpuri East", "name:hi": "\u091c\u0928\u0915\u092a\u0941\u0930\u0940 \u092a\u0942\u0930\u094d\u0935", "network": "Delhi Metro", "note": "Contributors are requested to not edit the \"network\" and the \"operator\" tags. (2023/06/22)", "operator": "Delhi Metro Rail Corporation Limited", "public_transport": "station", "railway": "station", "station": "subway", "subway": "yes", "wikidata": "Q11309886", "wikipedia": "en:Janakpuri East metro station"}}, {"type": "node", "id": 6548798519, "lat": 28.6365482, "lon": 77.0964961, "tags": {"name": "Tilak Nagar", "name:hi": "\u0924\u093f\u0932\u0915 \u0928\u0917\u0930", "network": "Delhi Metro", "network:wikidata": "Q271195", "note": "Contributors are requested to not edit the \"network\" and the \"operator\" tags. (2023/06/22)", "operator": "Delhi Metro Rail Corporation Limited", "operator:wikidata": "Q1029339", "public_transport": "station", "railway": "station", "station": "subway", "subway": "yes", "wikidata": "Q11318978", "wikipedia": "en:Tilak Nagar metro station"}}, {"type": "node", "id": 6548798520, "lat": 28.6404593, "lon": 77.1051815, "tags": {"name": "Subhash Nagar", "name:hi": "\u0938\u0941\u092d\u093e\u0937 \u0928\u0917\u0930", "name:ur": "\u0633\u0628\u06be\u0627\u0634 \u0646\u06af\u0631", "network": "Delhi Metro", "network:wikidata": "Q271195", "note": "Contributors are requested to not edit the \"network\" and the \"operator\" tags. (2023/06/22)", "operator": "Delhi Metro Rail Corporation Limited", "operator:wikidata": "Q1029339", "public_transport": "station", "railway": "station", "station": "subway", "subway": "yes", "wikidata": "Q7631236", "wikipedia": "en:Subhash Nagar metro station"}}, {"type": "node", "id": 6548798521, "lat": 28.6437265, "lon": 77.11282, "tags": {"name": "Tagore Garden", "name:hi": "\u091f\u0948\u0917\u094b\u0930 \u0917\u093e\u0930\u094d\u0921\u0928", "network": "Delhi Metro", "note": "Contributors are requested to not edit the \"network\" and the \"operator\" tags. (2023/06/22)", "operator": "Delhi Metro Rail Corporation Limited", "public_transport": "station", "railway": "station", "station": "subway", "subway": "yes", "wheelchair": "limited", "wikidata": "Q11316094", "wikipedia": "en:Tagore Garden metro station"}}, {"type": "node", "id": 6557965571, "lat": 28.5291107, "lon": 77.2878623}, {"type": "node", "id": 6557965572, "lat": 28.5292341, "lon": 77.2880846}, {"type": "node", "id": 6557965573, "lat": 28.5289795, "lon": 77.2882676}, {"type": "node", "id": 6557965574, "lat": 28.528999, "lon": 77.2883027}, {"type": "node", "id": 6557965576, "lat": 28.5284428, "lon": 77.2887027}, {"type": "node", "id": 6557965577, "lat": 28.528418, "lon": 77.2886579}, {"type": "node", "id": 6557965578, "lat": 28.5281681, "lon": 77.2888377}, {"type": "node", "id": 6557965579, "lat": 28.528053, "lon": 77.2886303}, {"type": "node", "id": 6557965580, "lat": 28.5283126, "lon": 77.2884435}, {"type": "node", "id": 6557965581, "lat": 28.5282861, "lon": 77.2883957}, {"type": "node", "id": 6557965582, "lat": 28.5288177, "lon": 77.2880164}, {"type": "node", "id": 6557965583, "lat": 28.5288367, "lon": 77.2880564}, {"type": "node", "id": 6559377938, "lat": 28.520148, "lon": 77.2942357}, {"type": "node", "id": 6559377939, "lat": 28.5202093, "lon": 77.2944207}, {"type": "node", "id": 6559377940, "lat": 28.5199171, "lon": 77.2945602}, {"type": "node", "id": 6559377941, "lat": 28.5199359, "lon": 77.2946138}, {"type": "node", "id": 6559377942, "lat": 28.5194481, "lon": 77.2948338}, {"type": "node", "id": 6559377943, "lat": 28.5193467, "lon": 77.2948874}, {"type": "node", "id": 6559377944, "lat": 28.5193255, "lon": 77.2948445}, {"type": "node", "id": 6559377945, "lat": 28.5190333, "lon": 77.2949786}, {"type": "node", "id": 6559377946, "lat": 28.5189649, "lon": 77.2948123}, {"type": "node", "id": 6559377947, "lat": 28.5192572, "lon": 77.2946729}, {"type": "node", "id": 6559377948, "lat": 28.5192336, "lon": 77.2945897}, {"type": "node", "id": 6559377949, "lat": 28.5192424, "lon": 77.2945566}, {"type": "node", "id": 6559377950, "lat": 28.5197309, "lon": 77.2943349}, {"type": "node", "id": 6559377951, "lat": 28.5197545, "lon": 77.2944046}, {"type": "node", "id": 6559377952, "lat": 28.5198393, "lon": 77.2943644}, {"type": "node", "id": 6559377953, "lat": 28.5198511, "lon": 77.2943993}, {"type": "node", "id": 6578275501, "lat": 28.5030384, "lon": 77.2995706, "tags": {"entrance": "yes"}}, {"type": "node", "id": 6578275502, "lat": 28.5021232, "lon": 77.2993002}, {"type": "node", "id": 6588684197, "lat": 28.6759351, "lon": 77.3205027}, {"type": "node", "id": 6588684198, "lat": 28.6759147, "lon": 77.3205032}, {"type": "node", "id": 6588684199, "lat": 28.6758581, "lon": 77.3205045}, {"type": "node", "id": 6588684200, "lat": 28.6757955, "lon": 77.320506}, {"type": "node", "id": 6588684201, "lat": 28.6758057, "lon": 77.3210541}, {"type": "node", "id": 6588684202, "lat": 28.67572, "lon": 77.3210562}, {"type": "node", "id": 6588684203, "lat": 28.6757345, "lon": 77.3218361}, {"type": "node", "id": 6588684204, "lat": 28.6757844, "lon": 77.3218349}, {"type": "node", "id": 6588684205, "lat": 28.6757948, "lon": 77.3223904}, {"type": "node", "id": 6588684206, "lat": 28.6759595, "lon": 77.3223864}, {"type": "node", "id": 6588684207, "lat": 28.6759493, "lon": 77.3218364}, {"type": "node", "id": 6588684208, "lat": 28.6760122, "lon": 77.3218349}, {"type": "node", "id": 6588684209, "lat": 28.6759977, "lon": 77.3210586}, {"type": "node", "id": 6588684210, "lat": 28.6759454, "lon": 77.3210599}, {"type": "node", "id": 6870243862, "lat": 28.5541637, "lon": 77.2647787}, {"type": "node", "id": 6935670343, "lat": 28.5893461, "lon": 77.1697638}, {"type": "node", "id": 6935670350, "lat": 28.5893049, "lon": 77.1698704}, {"type": "node", "id": 6935670352, "lat": 28.5893768, "lon": 77.1689233}, {"type": "node", "id": 6935670353, "lat": 28.5893675, "lon": 77.1697492}, {"type": "node", "id": 6935670358, "lat": 28.5892268, "lon": 77.1697226}, {"type": "node", "id": 6935670359, "lat": 28.5893278, "lon": 77.1697288}, {"type": "node", "id": 6935670360, "lat": 28.5893979, "lon": 77.169807}, {"type": "node", "id": 7018301880, "lat": 28.7027136, "lon": 77.1939912, "tags": {"name": "Model Town", "name:hi": "\u092e\u0949\u0921\u0932 \u091f\u093e\u0909\u0928", "name:ur": "\u0645\u0627\u0688\u0644 \u0679\u0627\u0624\u0646", "network": "Delhi Metro", "note": "Contributors are requested to not edit the \"network\" and the \"operator\" tags. (2023/06/22)", "operator": "Delhi Metro Rail Corporation Limited", "public_transport": "station", "railway": "station", "station": "subway", "subway": "yes", "wikidata": "Q6888294", "wikipedia": "en:Model Town metro station"}}, {"type": "node", "id": 7018301883, "lat": 28.5668602, "lon": 77.2078058, "tags": {"name": "A.I.I.M.S.", "name:hi": "\u090f\u092e\u094d\u091c\u093c", "name:kn": "\u0c8f\u0c90\u0c90\u0c8e\u0cae\u0ccd\u0c8e\u0cb8\u0ccd", "network": "Delhi Metro", "note": "Contributors are requested to not edit the \"network\" and the \"operator\" tags. (2023/06/22)", "operator": "Delhi Metro Rail Corporation Limited", "payment:cards": "yes", "payment:cash": "yes", "payment:coins": "yes", "payment:contactless": "yes", "payment:electronic_purses": "yes", "public_transport": "station", "railway": "station", "ref": "AIIMS", "short_name": "AIIMS", "station": "subway", "subway": "yes", "wikidata": "Q4651928", "wikipedia": "en:AIIMS metro station"}}, {"type": "node", "id": 7018316585, "lat": 28.5580071, "lon": 77.2067933, "tags": {"name": "Green Park", "name:fa": "\u06af\u0631\u06cc\u0646 \u067e\u0627\u0631\u06a9", "name:hi": "\u0917\u094d\u0930\u0940\u0928 \u092a\u093e\u0930\u094d\u0915", "name:kn": "\u0c97\u0ccd\u0cb0\u0cc0\u0ca8\u0ccd \u0caa\u0cbe\u0cb0\u0ccd\u0c95\u0ccd", "network": "Delhi Metro", "note": "Contributors are requested to not edit the \"network\" and the \"operator\" tags. (2023/06/22)", "operator": "Delhi Metro Rail Corporation Limited", "payment:cards": "yes", "payment:cash": "yes", "payment:coins": "yes", "payment:contactless": "yes", "payment:electronic_purses": "yes", "public_transport": "station", "railway": "station", "ref": "GNPK", "station": "subway", "subway": "yes", "wikidata": "Q5602948", "wikipedia": "en:Green Park metro station"}}, {"type": "node", "id": 7018316586, "lat": 28.6768508, "lon": 77.2250299, "tags": {"name": "Civil Lines", "name:hi": "\u0938\u093f\u0935\u093f\u0932 \u0932\u093e\u0907\u0928\u094d\u0938", "name:ur": "\u0633\u0648\u0644 \u0644\u0627\u0626\u0646\u0632", "network": "Delhi Metro", "note": "Contributors are requested to not edit the \"network\" and the \"operator\" tags. (2023/06/22)", "operator": "Delhi Metro Rail Corporation Limited", "public_transport": "station", "railway": "station", "ref": "CL", "station": "subway", "subway": "yes", "wheelchair": "yes", "wikidata": "Q5124512", "wikipedia": "en:Civil Lines metro station (Delhi)"}}, {"type": "node", "id": 7018316587, "lat": 28.6863222, "lon": 77.2217271, "tags": {"name": "Vidhan Sabha", "name:hi": "\u0935\u093f\u0927\u093e\u0928 \u0938\u092d\u093e", "name:ur": "\u0648\u062f\u06be\u0627\u0646 \u0633\u0628\u06be\u0627", "network": "Delhi Metro", "note": "Contributors are requested to not edit the \"network\" and the \"operator\" tags. (2023/06/22)", "operator": "Delhi Metro Rail Corporation Limited", "public_transport": "station", "railway": "station", "ref": "VS", "station": "subway", "subway": "yes", "wikidata": "Q11352050", "wikipedia": "en:Vidhan Sabha metro station"}}, {"type": "node", "id": 7018316588, "lat": 28.6950772, "lon": 77.2147459, "tags": {"name": "Vishwa Vidyalaya", "name:hi": "\u0935\u093f\u0936\u094d\u0935 \u0935\u093f\u0926\u094d\u092f\u093e\u0932\u092f", "network": "Delhi Metro", "note": "Contributors are requested to not edit the \"network\" and the \"operator\" tags. (2023/06/22)", "operator": "Delhi Metro Rail Corporation Limited", "public_transport": "station", "railway": "station", "ref": "VW", "station": "subway", "subway": "yes", "wikidata": "Q7936037", "wikipedia": "en:Vishwa Vidyalaya metro station"}}, {"type": "node", "id": 7018316591, "lat": 28.5290656, "lon": 77.2048241, "tags": {"name": "Malviya Nagar", "name:hi": "\u092e\u093e\u0932\u0935\u0940\u092f \u0928\u0917\u0930", "name:kn": "\u0cae\u0cbe\u0cb3\u0ccd\u0cb5\u0cbf\u0caf \u0ca8\u0c97\u0cb0\u0ccd", "name:ur": "\u0645\u0627\u0644\u0648\u06cc\u06c1 \u0646\u06af\u0631", "network": "Delhi Metro", "note": "Contributors are requested to not edit the \"network\" and the \"operator\" tags. (2023/06/22)", "operator": "Delhi Metro Rail Corporation Limited", "payment:cards": "yes", "payment:cash": "yes", "payment:coins": "yes", "payment:contactless": "yes", "payment:electronic_purses": "yes", "public_transport": "station", "railway": "station", "ref": "MVNR", "station": "subway", "subway": "yes", "wikidata": "Q6745134", "wikipedia": "en:Malviya Nagar metro station"}}, {"type": "node", "id": 7018316592, "lat": 28.5067242, "lon": 77.1750019, "tags": {"name": "Chhatarpur", "name:hi": "\u091b\u0924\u094d\u0924\u0930\u092a\u0941\u0930", "name:ur": "\u0686\u06be\u062a\u0631 \u067e\u0648\u0631", "network": "Delhi Metro", "note": "Contributors are requested to not edit the \"network\" and the \"operator\" tags. (2023/06/22)", "operator": "Delhi Metro Rail Corporation Limited", "payment:cards": "yes", "payment:cash": "yes", "payment:coins": "yes", "payment:contactless": "yes", "payment:electronic_purses": "yes", "public_transport": "station", "railway": "station", "ref": "CHTP", "station": "subway", "subway": "yes", "wheelchair": "yes", "wikidata": "Q5094801", "wikipedia": "en:Chhatarpur metro station"}}, {"type": "node", "id": 7018711118, "lat": 28.4991235, "lon": 77.1613745, "tags": {"name": "Sultanpur", "name:hi": "\u0938\u0941\u0932\u094d\u0924\u093e\u0928\u092a\u0941\u0930", "name:ur": "\u0633\u0644\u0637\u0627\u0646 \u067e\u0648\u0631", "network": "Delhi Metro", "note": "Contributors are requested to not edit the \"network\" and the \"operator\" tags. (2023/06/22)", "operator": "Delhi Metro Rail Corporation Limited", "payment:cards": "yes", "payment:cash": "yes", "payment:coins": "yes", "payment:contactless": "yes", "payment:electronic_purses": "yes", "public_transport": "station", "railway": "station", "ref": "SLN", "station": "subway", "subway": "yes", "wikidata": "Q11313479", "wikipedia": "en:Sultanpur metro station"}}, {"type": "node", "id": 7018886724, "lat": 28.6584227, "lon": 77.2303375, "tags": {"addr:postcode": "110006", "name": "Chandni Chowk", "name:hi": "\u091a\u093e\u0901\u0926\u0928\u0940 \u091a\u094c\u0915", "name:ur": "\u0686\u0627\u0646\u062f\u0646\u06cc \u0686\u0648\u06a9", "network": "Delhi Metro", "note": "Contributors are requested to not edit the \"network\" and the \"operator\" tags. (2023/06/22)", "operator": "Delhi Metro Rail Corporation Limited", "operator:ur": "\u062f\u06c1\u0644\u06cc \u0645\u06cc\u0679\u0631\u0648", "public_transport": "station", "railway": "station", "ref": "CHK", "station": "subway", "subway": "yes", "wikidata": "Q5071227", "wikipedia": "en:Chandni Chowk metro station (Delhi)"}}, {"type": "node", "id": 7018886725, "lat": 28.6492649, "lon": 77.2265153, "tags": {"addr:postcode": "110006", "name": "Chawri Bazaar", "name:hi": "\u091a\u093e\u0935\u0921\u093c\u0940 \u092c\u093e\u091c\u093c\u093e\u0930", "name:ur": "\u0686\u0627\u0624\u0691\u06cc \u0628\u0627\u0632\u0627\u0631", "network": "Delhi Metro", "note": "Contributors are requested to not edit the \"network\" and the \"operator\" tags. (2023/06/22)", "operator": "Delhi Metro Rail Corporation Limited", "public_transport": "station", "railway": "station", "ref": "CWBR", "station": "subway", "subway": "yes", "wikidata": "Q5088577", "wikipedia": "en:Chawri Bazar metro station"}}, {"type": "node", "id": 7018886726, "lat": 28.6229664, "lon": 77.214031, "tags": {"name": "Patel Chowk", "name:hi": "\u092a\u091f\u0947\u0932 \u091a\u094c\u0915", "name:ur": "\u067e\u0679\u06cc\u0644 \u0686\u0648\u06a9", "network": "Delhi Metro", "network:wikidata": "Q271195", "note": "Contributors are requested to not edit the \"network\" and the \"operator\" tags. (2023/06/22)", "operator": "Delhi Metro Rail Corporation Limited", "operator:wikidata": "Q1029339", "public_transport": "station", "railway": "station", "ref": "PTCK", "station": "subway", "subway": "yes", "wikidata": "Q7144407", "wikipedia": "en:Patel Chowk metro station"}}, {"type": "node", "id": 7018886727, "lat": 28.6095136, "lon": 77.211796, "tags": {"name": "Udyog Bhavan", "name:hi": "\u0909\u0926\u094d\u092f\u094b\u0917 \u092d\u0935\u0928", "name:ur": "\u0627\u064f\u062f\u06cc\u0648\u06af \u0628\u06be\u0648\u0646", "network": "Delhi Metro", "network:wikidata": "Q271195", "note": "Contributors are requested to not edit the \"network\" and the \"operator\" tags. (2023/06/22)", "operator": "Delhi Metro Rail Corporation Limited", "operator:wikidata": "Q1029339", "public_transport": "station", "railway": "station", "ref": "UDB", "station": "subway", "subway": "yes", "wikidata": "Q7877392", "wikipedia": "en:Udyog Bhawan metro station"}}, {"type": "node", "id": 7018886728, "lat": 28.5973513, "lon": 77.2110967, "tags": {"name": "Lok Kalyan Marg", "name:hi": "\u0932\u094b\u0915 \u0915\u0932\u094d\u092f\u093e\u0923 \u092e\u093e\u0930\u094d\u0917", "name:kn": "\u0cb2\u0ccb\u0c95\u0ccd \u0c95\u0cb2\u0ccd\u0caf\u0cbe\u0ca3\u0ccd", "network": "Delhi Metro", "note": "Contributors are requested to not edit the \"network\" and the \"operator\" tags. (2023/06/22)", "old_name": "Race Course", "operator": "Delhi Metro Rail Corporation Limited", "public_transport": "station", "railway": "station", "station": "subway", "subway": "yes", "wikidata": "Q7278893", "wikipedia": "en:Lok Kalyan Marg metro station"}}, {"type": "node", "id": 7018886729, "lat": 28.5865094, "lon": 77.2125273, "tags": {"name": "Jor Bagh", "name:hi": "\u091c\u094b\u0930 \u092c\u093e\u0917", "name:kn": "\u0c9c\u0ccb\u0cb0\u0ccd \u0cad\u0cbe\u0c97\u0ccd", "name:ur": "\u062c\u0648\u0631 \u0628\u0627\u063a", "network": "Delhi Metro", "network:wikidata": "Q271195", "note": "Contributors are requested to not edit the \"network\" and the \"operator\" tags. (2023/06/22)", "operator": "Delhi Metro Rail Corporation Limited", "operator:wikidata": "Q1029339", "public_transport": "station", "railway": "station", "ref": "JB", "station": "subway", "subway": "yes", "wikidata": "Q6276226", "wikipedia": "en:Jor Bagh metro station"}}, {"type": "node", "id": 7018886730, "lat": 28.512951, "lon": 77.1864532, "tags": {"name": "Qutab Minar", "name:hi": "\u0915\u093c\u0941\u0924\u0941\u092c \u092e\u0940\u0928\u093e\u0930", "name:ur": "\u0642\u0637\u0628 \u0645\u06cc\u0646\u0627\u0631", "network": "Delhi Metro", "note": "Contributors are requested to not edit the \"network\" and the \"operator\" tags. (2023/06/22)", "operator": "Delhi Metro Rail Corporation Limited", "payment:cards": "yes", "payment:cash": "yes", "payment:coins": "yes", "payment:contactless": "yes", "payment:electronic_purses": "yes", "public_transport": "station", "railway": "station", "ref": "QM", "station": "subway", "subway": "yes", "wheelchair": "yes", "wikidata": "Q7273002", "wikipedia": "en:Qutab Minar metro station"}}, {"type": "node", "id": 7018886731, "lat": 28.493751, "lon": 77.1491866, "tags": {"name": "Ghitorni", "name:hi": "\u0918\u093f\u091f\u094b\u0930\u0928\u0940", "network": "Delhi Metro", "note": "Contributors are requested to not edit the \"network\" and the \"operator\" tags. (2023/06/23)", "operator": "Delhi Metro Rail Corporation Limited", "payment:cards": "yes", "payment:cash": "yes", "payment:coins": "yes", "payment:contactless": "yes", "payment:electronic_purses": "yes", "railway": "station", "station": "subway", "wikidata": "Q271195", "wikipedia": "en:Delhi Metro"}}, {"type": "node", "id": 7018886732, "lat": 28.4807352, "lon": 77.1257622, "tags": {"name": "Arjan Garh", "name:hi": "\u0905\u0930\u091c\u0928 \u0917\u0922\u093c", "network": "Delhi Metro", "note": "Contributors are requested to not edit the \"network\" and the \"operator\" tags. (2023/06/23)", "operator": "Delhi Metro Rail Corporation Limited", "payment:cards": "yes", "payment:cash": "yes", "payment:coins": "yes", "payment:contactless": "yes", "payment:electronic_purses": "yes", "railway": "station", "station": "subway", "wheelchair": "yes", "wikidata": "Q271195", "wikipedia": "en:Delhi Metro"}}, {"type": "node", "id": 7039532905, "lat": 28.6173003, "lon": 77.0104375, "tags": {"name": "Nangli", "name:hi": "\u0928\u093e\u0902\u0917\u0932\u0940", "name:ur": "\u0646\u0627\u0646\u06af\u0644\u06cc", "network": "Delhi Metro", "note": "Contributors are requested to not edit the \"network\" and the \"operator\" tags. (2023/06/22)", "operator": "Delhi Metro Rail Corporation Limited", "public_transport": "station", "railway": "station", "ref": "NNGI", "station": "subway", "subway": "yes", "wikidata": "Q28172632", "wikipedia": "en:Nangli metro station"}}, {"type": "node", "id": 7267374894, "lat": 28.5514171, "lon": 77.2517386, "tags": {"name": "Nehru Place", "name:hi": "\u0928\u0947\u0939\u0930\u0942 \u092a\u094d\u0932\u0947\u0938", "network": "Delhi Metro", "note": "Contributors are requested to not edit the \"network\" and the \"operator\" tags. (2023/06/23)", "operator": "Delhi Metro Rail Corporation Limited", "public_transport": "station", "railway": "station", "station": "subway"}}, {"type": "node", "id": 7267374895, "lat": 28.5553298, "lon": 77.2419637, "tags": {"name": "Kailash Colony", "name:hi": "\u0915\u0948\u0932\u093e\u0936 \u0915\u0949\u0932\u094b\u0928\u0940", "network": "Delhi Metro", "note": "Contributors are requested to not edit the \"network\" and the \"operator\" tags. (2023/06/22)", "operator": "Delhi Metro Rail Corporation Limited", "public_transport": "station", "railway": "station", "station": "subway", "subway": "yes"}}, {"type": "node", "id": 7282286730, "lat": 28.657483, "lon": 77.2366607, "tags": {"addr:postcode": "110006", "name": "Lal Quila", "name:hi": "\u0932\u093e\u0932 \u0915\u093f\u0932\u093e", "name:ur": "\u0644\u0627\u0644 \u0642\u0644\u0639\u06c1", "network": "Delhi Metro", "note": "Contributors are requested to not edit the \"network\" and the \"operator\" tags. (2023/06/22)", "operator": "Delhi Metro Rail Corporation Limited", "public_transport": "station", "railway": "station", "station": "subway", "subway": "yes", "toilets:wheelchair": "no", "wheelchair": "yes", "wikidata": "Q19581000", "wikipedia": "en:Lal Qila metro station"}}, {"type": "node", "id": 7282286731, "lat": 28.6022446, "lon": 77.2291281, "tags": {"name": "Khan Market", "name:hi": "\u0916\u093e\u0928 \u092c\u093e\u091c\u093e\u0930", "name:ur": "\u062e\u0627\u0646 \u0628\u0627\u0632\u0627\u0631", "network": "Delhi Metro", "note": "Contributors are requested to not edit the \"network\" and the \"operator\" tags. (2023/06/22)", "operator": "Delhi Metro Rail Corporation Limited", "public_transport": "station", "railway": "station", "station": "subway", "subway": "yes"}}, {"type": "node", "id": 7282286733, "lat": 28.6392174, "lon": 77.2407795, "tags": {"line": "Violet Line", "name": "Delhi Gate", "name:hi": "\u0926\u093f\u0932\u094d\u0932\u0940 \u0917\u0947\u091f", "name:ur": "\u062f\u06c1\u0644\u06cc \u062f\u0631\u0648\u0627\u0632\u06c1", "network": "Delhi Metro", "note": "Contributors are requested to not edit the \"network\" and the \"operator\" tags. (2023/06/22)", "operator": "Delhi Metro Rail Corporation Limited", "public_transport": "station", "railway": "station", "ref": "DLIG", "station": "subway", "subway": "yes", "wikidata": "Q19580569", "wikipedia": "en:Delhi Gate metro station"}}, {"type": "node", "id": 7840172264, "lat": 28.5387696, "lon": 77.2830326}, {"type": "node", "id": 7840172265, "lat": 28.5386858, "lon": 77.2828497}, {"type": "node", "id": 7840172266, "lat": 28.5384347, "lon": 77.2829986}, {"type": "node", "id": 7840172267, "lat": 28.5383911, "lon": 77.2829034}, {"type": "node", "id": 7840172268, "lat": 28.5379068, "lon": 77.2831906}, {"type": "node", "id": 7840172269, "lat": 28.5378384, "lon": 77.2832312}, {"type": "node", "id": 7840172270, "lat": 28.5377474, "lon": 77.2832852}, {"type": "node", "id": 7840172271, "lat": 28.5377921, "lon": 77.2833829}, {"type": "node", "id": 7840172272, "lat": 28.5375824, "lon": 77.2835073}, {"type": "node", "id": 7840172273, "lat": 28.5376635, "lon": 77.2836843}, {"type": "node", "id": 7840172274, "lat": 28.5378999, "lon": 77.2835441}, {"type": "node", "id": 7840172275, "lat": 28.5379284, "lon": 77.2836062}, {"type": "node", "id": 7840172276, "lat": 28.5385012, "lon": 77.2832664}, {"type": "node", "id": 7840172277, "lat": 28.5384743, "lon": 77.2832077}, {"type": "node", "id": 8018558072, "lat": 28.6327786, "lon": 77.2196985, "tags": {"name": "Rajiv Chowk", "name:hi": "\u0930\u093e\u091c\u0940\u0935 \u091a\u094c\u0915", "name:kn": "\u0cb0\u0cbe\u0c9c\u0cc0\u0cb5\u0ccd \u0c9a\u0ccc\u0c95\u0ccd", "name:ml": "\u0d30\u0d3e\u0d1c\u0d40\u0d35\u0d4d \u0d1a\u0d57\u0d15\u0d4d\u0d15\u0d4d", "name:ur": "\u0631\u0627\u062c\u06cc\u0648 \u0686\u0648\u06a9", "network": "Delhi Metro", "network:wikidata": "Q271195", "note": "Contributors are requested to not edit the \"network\" and the \"operator\" tags. (2023/06/22)", "operator": "Delhi Metro Rail Corporation Limited", "operator:wikidata": "Q1029339", "public_transport": "station", "railway": "station", "ref": "RCK", "station": "subway", "subway": "yes", "wikidata": "Q7286183", "wikipedia": "en:Rajiv Chowk metro station"}}, {"type": "node", "id": 9066465094, "lat": 28.678613, "lon": 77.1022154, "tags": {"name": "Paschim Vihar West", "name:hi": "\u092a\u0936\u094d\u091a\u093f\u092e \u0935\u093f\u0939\u093e\u0930 \u092a\u0936\u094d\u091a\u093f\u092e", "network": "Delhi Metro", "note": "Contributors are requested to not edit the \"network\" and the \"operator\" tags. (2023/06/22)", "operator": "Delhi Metro Rail Corporation Limited", "public_transport": "station", "railway": "station", "station": "subway", "subway": "yes", "wikidata": "Q7141809"}}, {"type": "node", "id": 9172459622, "lat": 28.6124504, "lon": 76.9865067, "tags": {"name": "Najafgarh", "name:hi": "\u0928\u091c\u092b\u0917\u0922\u093c", "name:ur": "\u0646\u062c\u0641 \u06af\u0691\u06be", "network": "Delhi Metro", "note": "Contributors are requested to not edit the \"network\" and the \"operator\" tags. (2023/06/22)", "operator": "Delhi Metro Rail Corporation Limited", "public_transport": "station", "railway": "station", "ref": "NFGH", "station": "subway", "subway": "yes", "wikidata": "Q28172634", "wikipedia": "en:Najafgarh metro station"}}, {"type": "node", "id": 9415047898, "lat": 28.6305974, "lon": 77.277523, "tags": {"alt_name": "Lakshmi Nagar", "name": "Laxmi Nagar", "name:hi": "\u0932\u0915\u094d\u0937\u094d\u092e\u0940 \u0928\u0917\u0930", "name:kn": "\u0cb2\u0c95\u0ccd\u0cb7\u0ccd\u0cae\u0cbf \u0ca8\u0c97\u0cb0\u0ccd", "name:ur": "\u0644\u06a9\u0634\u0645\u06cc \u0646\u06af\u0631", "network": "Delhi Metro", "note": "Contributors are requested to not edit the \"network\" and the \"operator\" tags. (2023/06/22)", "operator": "Delhi Metro Rail Corporation Limited", "public_transport": "station", "railway": "station", "station": "subway", "subway": "yes", "wheelchair": "yes", "wikidata": "Q6505213"}}, {"type": "node", "id": 9415047899, "lat": 28.6414176, "lon": 77.2952819, "tags": {"name": "Preet Vihar", "name:hi": "\u092a\u094d\u0930\u0940\u0924 \u0935\u093f\u0939\u093e\u0930", "name:ur": "\u067e\u0631\u06cc\u062a \u0648\u06c1\u0627\u0631", "network": "Delhi Metro", "note": "Contributors are requested to not edit the \"network\" and the \"operator\" tags. (2023/06/22)", "operator": "Delhi Metro Rail Corporation Limited", "public_transport": "station", "railway": "station", "station": "subway", "subway": "yes", "wikidata": "Q7239761"}}, {"type": "node", "id": 9584236504, "lat": 28.5644044, "lon": 77.2342555, "tags": {"name": "Moolchand", "name:hi": "\u092e\u0942\u0932\u091a\u0902\u0926", "network": "Delhi Metro", "note": "Contributors are requested to not edit the \"network\" and the \"operator\" tags. (2023/06/22)", "operator": "Delhi Metro Rail Corporation Limited", "public_transport": "station", "railway": "station", "station": "subway", "subway": "yes"}}, {"type": "node", "id": 9584236505, "lat": 28.5830386, "lon": 77.2393151, "tags": {"name": "Jangpura", "name:hi": "\u091c\u0902\u0917\u092a\u0941\u0930\u093e", "name:ur": "\u062c\u0646\u06af \u067e\u0648\u0631\u06c1", "network": "Delhi Metro", "note": "Contributors are requested to not edit the \"network\" and the \"operator\" tags. (2023/06/22)", "opening_hours": "Mo-Su 06:00-23:15", "operator": "Delhi Metro Rail Corporation Limited", "public_transport": "station", "railway": "station", "station": "subway", "subway": "yes", "wheelchair": "yes"}}, {"type": "node", "id": 9584236506, "lat": 28.5882347, "lon": 77.2337833, "tags": {"name": "Jawaharlal Nehru Stadium", "name:hi": "\u091c\u0935\u093e\u0939\u0930 \u0932\u093e\u0932 \u0928\u0947\u0939\u0930\u0942 \u0938\u094d\u091f\u0947\u0921\u093f\u092f\u092e", "network": "Delhi Metro", "network:wikidata": "Q271195", "note": "Contributors are requested to not edit the \"network\" and the \"operator\" tags. (2023/06/22)", "operator": "Delhi Metro Rail Corporation Limited", "operator:wikidata": "Q1029339", "public_transport": "station", "railway": "station", "station": "subway", "subway": "yes"}}, {"type": "node", "id": 9584236507, "lat": 28.6240485, "lon": 77.2192587, "tags": {"name": "Janpath", "name:en": "Janpath", "name:hi": "\u091c\u0928\u092a\u0925", "name:kn": "\u0c9c\u0ca8\u0ccd\u0caa\u0ca4\u0ccd", "name:ur": "\u062c\u0646 \u067e\u062a\u06be", "network": "Delhi Metro", "network:wikidata": "Q271195", "note": "Contributors are requested to not edit the \"network\" and the \"operator\" tags. (2023/06/22)", "operator": "Delhi Metro Rail Corporation Limited", "operator:wikidata": "Q1029339", "public_transport": "station", "railway": "station", "ref": "JNPH", "station": "subway", "subway": "yes", "wikidata": "Q16850982", "wikipedia": "en:Janpath metro station"}}, {"type": "node", "id": 9584236508, "lat": 28.6281909, "lon": 77.2410437, "tags": {"addr:city": "New Delhi", "name": "ITO", "name:hi": "\u0906\u0908\u091f\u0940\u0913", "name:kn": "\u0c90\u0c9f\u0cbf\u0c93", "network": "Delhi Metro", "note": "Contributors are requested to not edit the \"network\" and the \"operator\" tags. (2023/06/22)", "operator": "Delhi Metro Rail Corporation Limited", "public_transport": "station", "railway": "station", "ref": "ITO", "station": "subway", "subway": "yes", "wikidata": "Q19580817", "wikipedia": "en:ITO metro station"}}, {"type": "node", "id": 9597709830, "lat": 28.5445521, "lon": 77.2642761, "tags": {"air_conditioning": "yes", "elevation": "1", "layer": "1", "level": "1", "name": "Govind Puri", "name:hi": "\u0917\u094b\u0935\u093f\u0902\u0926 \u092a\u0941\u0930\u0940", "network": "Delhi Metro", "note": "Contributors are requested to not edit the \"network\" and the \"operator\" tags. (2023/06/22)", "operator": "Delhi Metro Rail Corporation Limited", "public_transport": "station", "railway": "station", "station": "subway", "subway": "yes", "wikidata": "Q5589852"}}, {"type": "node", "id": 9597709831, "lat": 28.5429338, "lon": 77.2750407, "tags": {"air_conditioning": "yes", "elevation": "1", "layer": "1", "level": "1", "name": "Harkesh Nagar Okhla", "name:hi": "\u0939\u0930\u0915\u0947\u0936 \u0928\u0917\u0930", "name:ur": "\u06c1\u0631\u06a9\u06cc\u0634 \u0646\u06af\u0631 \u0627\u0648\u06a9\u06be\u0644\u0627", "network": "Delhi Metro", "note": "Contributors are requested to not edit the \"network\" and the \"operator\" tags. (2023/06/22)", "operator": "Delhi Metro Rail Corporation Limited", "public_transport": "station", "railway": "station", "ref": "OKA", "station": "subway", "subway": "yes", "wheelchair": "yes", "wikidata": "Q7081967", "wikipedia": "en:Harkesh Nagar Okhla metro station"}}, {"type": "node", "id": 9869990196, "lat": 28.5190138, "lon": 77.2949312}, {"type": "node", "id": 9869990203, "lat": 28.5201938, "lon": 77.294374}, {"type": "node", "id": 9920295123, "lat": 28.6255149, "lon": 77.2341926, "tags": {"name": "Mandi House", "name:hi": "\u092e\u0902\u0921\u0940 \u0939\u093e\u0909\u0938", "name:kn": "\u0cae\u0c82\u0ca1\u0cbf \u0cb9\u0ccc\u0cb8\u0ccd", "network": "Delhi Metro", "note": "Contributors are requested to not edit the \"network\" and the \"operator\" tags. (2023/06/22)", "operator": "Delhi Metro Rail Corporation Limited", "public_transport": "station", "railway": "station", "ref": "MDHS", "station": "subway", "subway": "yes", "wikidata": "Q6748047", "wikipedia": "en:Mandi House metro station"}}, {"type": "node", "id": 9936590366, "lat": 28.61572, "lon": 77.0851893, "tags": {"name": "Dabri Mor - Janakpuri South", "name:hi": "\u0921\u093e\u092c\u0930\u0940 \u092e\u094b\u0921\u093c - \u091c\u0928\u0915\u092a\u0941\u0930\u0940 \u0938\u093e\u0909\u0925", "network": "Delhi Metro", "note": "Contributors are requested to not edit the \"network\" and the \"operator\" tags. (2023/06/22)", "operator": "Delhi Metro Rail Corporation Limited", "public_transport": "station", "railway": "station", "ref": "DBMR", "station": "subway", "subway": "yes", "wikidata": "Q24807633", "wikipedia": "en:Dabri Mor - Janakpuri South metro station"}}, {"type": "node", "id": 10314380321, "lat": 28.6364592, "lon": 77.2868145, "tags": {"name": "Nirman Vihar", "name:hi": "\u0928\u093f\u0930\u094d\u092e\u093e\u0923 \u0935\u093f\u0939\u093e\u0930", "name:ur": "\u0646\u0631\u0645\u0627\u0646 \u0648\u06c1\u0627\u0631", "network": "Delhi Metro", "note": "Contributors are requested to not edit the \"network\" and the \"operator\" tags. (2023/06/22)", "operator": "Delhi Metro Rail Corporation Limited", "public_transport": "station", "public_transport:version": "2", "railway": "station", "ref": "NV", "station": "subway", "subway": "yes", "wheelchair": "yes", "wikidata": "Q7040065", "wikipedia": "en:Nirman Vihar metro station"}}, {"type": "node", "id": 10700089589, "lat": 28.6474707, "lon": 77.3167989, "tags": {"name": "Anand Vihar", "name:hi": "\u0906\u0928\u0902\u0926 \u0935\u093f\u0939\u093e\u0930", "name:ur": "\u0622\u0646\u0646\u062f \u0648\u06c1\u0627\u0631", "network": "RRTS", "operator": "National Capital Region Transport Corporation", "public_transport": "station", "railway": "station", "ref": "A02", "wikidata": "Q118124969", "wikipedia": "en:Anand Vihar RRTS station"}}, {"type": "node", "id": 10904526548, "lat": 28.5579466, "lon": 77.1733933}, {"type": "node", "id": 10904526549, "lat": 28.5575392, "lon": 77.1739951}, {"type": "node", "id": 10904526550, "lat": 28.5578345, "lon": 77.1742872}, {"type": "node", "id": 10904526551, "lat": 28.5583118, "lon": 77.1737259}, {"type": "node", "id": 10922685709, "lat": 28.675385, "lon": 77.3008678, "tags": {"name": "Mansarovar Park", "name:hi": "\u092e\u093e\u0928\u0938\u0930\u094b\u0935\u0930 \u092a\u093e\u0930\u094d\u0915 \u092e\u0947\u091f\u094d\u0930\u094b \u0938\u094d\u091f\u0947\u0936\u0928", "network": "Delhi Metro", "note": "Contributors are requested to not edit the \"network\" and the \"operator\" tags. (2023/06/22)", "operator": "Delhi Metro Rail Corporation Limited", "public_transport": "station", "railway": "station", "ref": "MPK", "station": "subway", "subway": "yes", "wheelchair": "yes", "wikidata": "Q6751563", "wikipedia": "en:Mansarovar Park metro station"}}, {"type": "node", "id": 10966173706, "lat": 28.5385014, "lon": 77.2831916}, {"type": "node", "id": 11068819587, "lat": 28.5541718, "lon": 77.2648218}, {"type": "node", "id": 11174317216, "lat": 28.6686728, "lon": 77.228051, "tags": {"name": "Kashmere Gate", "name:hi": "\u0915\u0936\u094d\u092e\u0940\u0930\u0940 \u0917\u0947\u091f", "name:ks": "\u06a9\u0634\u0645\u06cc\u0631\u06cc \u062f\u0631\u0648\u0627\u0632\u06c1", "name:pa": "\u0a15\u0a38\u0a3c\u0a2e\u0a40\u0a30\u0a40 \u0a17\u0a47\u0a1f", "name:pnb": "\u06a9\u0634\u0645\u06cc\u0631\u06cc \u06af\u06cc\u0679", "name:uk": "\u041a\u0430\u0448\u043c\u0456\u0440\u0441\u044c\u043a\u0430 \u0431\u0440\u0430\u043c\u0430", "name:ur": "\u06a9\u0634\u0645\u06cc\u0631\u06cc \u062f\u0631\u0648\u0627\u0632\u06c1", "public_transport": "station", "railway": "station", "station": "subway", "subway": "yes"}}, {"type": "node", "id": 11203142798, "lat": 28.5508323, "lon": 77.0453073, "tags": {"alt_name": "IICC Dwarka Sector 25", "name": "Yashobhoomi Dwarka Sector 25", "name:hi": "\u092f\u0936\u094b\u092d\u0942\u092e\u093f \u0926\u094d\u0935\u093e\u0930\u0915\u093e \u0938\u0947\u0915\u094d\u091f\u0930 - \u0968\u096b", "network": "Delhi Metro", "network:wikidata": "Q271195", "operator": "Delhi Metro Rail Corporation Limited", "operator:wikidata": "Q1029339", "public_transport": "station", "railway": "station", "ref": "IICC", "station": "subway", "subway": "yes", "wikidata": "Q112787125", "wikipedia": "en:Yashobhoomi Dwarka Sector - 25 metro station"}}, {"type": "node", "id": 11697504080, "lat": 28.5039869, "lon": 77.2938193, "tags": {"name": "Tughlkabad railway station", "name:ur": "\u062a\u063a\u0644\u0642 \u0622\u0628\u0627\u062f", "public_transport": "station", "railway": "station", "train": "yes"}}, {"type": "node", "id": 11814425255, "lat": 28.5892505, "lon": 77.1697677}, {"type": "node", "id": 12135670068, "lat": 28.5894856, "lon": 77.1691305}, {"type": "node", "id": 12149316873, "lat": 28.6477823, "lon": 77.0844169, "tags": {"name": "Krishna Park Extension", "name:hi": "\u0915\u0943\u0937\u094d\u0923\u093e \u092a\u093e\u0930\u094d\u0915 \u090f\u0915\u094d\u0938\u091f\u0947\u0902\u0936\u0928", "network": "Delhi Metro", "operator": "Delhi Metro Rail Corporation Limited", "public_transport": "station", "railway": "station", "station": "subway", "subway": "yes", "wheelchair": "yes", "wikidata": "Q131309538", "wikipedia": "en:Krishna Park Extension metro station"}}, {"type": "node", "id": 12159111691, "lat": 28.5892886, "lon": 77.1698395}, {"type": "node", "id": 12478188647, "lat": 28.5912694, "lon": 77.3025084, "tags": {"name": "New Ashok Nagar", "name:fa": "\u0928\u092f\u093e \u0905\u0936\u094b\u0915 \u0928\u0917\u0930", "name:ur": "\u0646\u06cc\u0648 \u0627\u0634\u0648\u06a9 \u0646\u06af\u0631", "network": "RRTS", "operator": "National Capital Region Transport Corporation", "public_transport": "station", "railway": "station", "ref": "A01", "wikidata": "Q131675691", "wikipedia": "en:New Ashok Nagar RRTS station"}}, {"type": "node", "id": 12712532190, "lat": 28.600006, "lon": 77.227255}, {"type": "node", "id": 12712532198, "lat": 28.6001361, "lon": 77.2271496}, {"type": "node", "id": 12876529173, "lat": 28.6439049, "lon": 77.1875506}, {"type": "node", "id": 12876529174, "lat": 28.6441685, "lon": 77.189373}, {"type": "node", "id": 12876529175, "lat": 28.6440526, "lon": 77.1893947}, {"type": "node", "id": 12876529176, "lat": 28.6437894, "lon": 77.1875723}, {"type": "node", "id": 13162475352, "lat": 28.5289118, "lon": 77.2883654, "tags": {"entrance": "yes"}}, {"type": "way", "id": 351418783, "nodes": [3571786995, 3571786984, 3571786971, 3571786974, 3571786995], "tags": {"building": "yes", "name": "Patel Chowk", "name:hi": "\u092a\u091f\u0947\u0932 \u091a\u094c\u0915", "network": "Delhi Metro", "network:wikidata": "Q271195", "note": "Contributors are requested to not edit the \"network\" and the \"operator\" tags. (2023/06/22)", "operator": "Delhi Metro Rail Corporation Limited", "operator:wikidata": "Q1029339", "public_transport": "station", "railway": "station", "station": "subway", "subway": "yes"}}, {"type": "way", "id": 360264006, "nodes": [3648452310, 3648452312, 3648452305, 3648452304, 3648452310], "tags": {"building": "transportation", "layer": "-1", "location": "surface", "name": "Jama Masjid", "name:hi": "\u091c\u093e\u092e\u093e \u092e\u0938\u094d\u091c\u093f\u0926", "name:ur": "\u062c\u0627\u0645\u0639 \u0645\u0633\u062c\u062f", "network": "Delhi Metro", "note": "Contributors are requested to not edit the \"network\" and the \"operator\" tags. (2023/06/22)", "operator": "Delhi Metro Rail Corporation Limited", "public_transport": "station", "railway": "station", "ref": "JAMD", "station": "subway", "subway": "yes", "wikidata": "Q19580828", "wikipedia": "en:Jama Masjid metro station"}}, {"type": "way", "id": 504034446, "nodes": [4942491560, 6515969511, 3504596885, 4942491561, 6537356066, 6537347632, 4942491562, 4942491563, 6537356677, 4942491564, 4942491565, 4942491566, 4942491567, 4942491568, 4942491569, 4942491570, 4942491560], "tags": {"building": "yes", "building:levels": "3", "name": "Akshardham", "name:hi": "\u0905\u0915\u094d\u0937\u0930\u0927\u093e\u092e", "name:kn": "\u0c85\u0c95\u0ccd\u0cb7\u0cb0\u0ca6\u0cbe\u0cae\u0ccd", "network": "Delhi Metro", "note": "Contributors are requested to not edit the \"network\" and the \"operator\" tags. (2023/06/22)", "operator": "Delhi Metro Rail Corporation Limited", "public_transport": "station", "railway": "station", "station": "subway", "subway": "yes", "wikidata": "Q4701799"}}, {"type": "way", "id": 581226084, "nodes": [5561849788, 5561849787, 5561849786, 5561849785, 5561849784, 5561849783, 5561849782, 5561849781, 5561849780, 5561849779, 5561849778, 5561849777, 5561849788], "tags": {"air_conditioning": "yes", "building": "transportation", "elevation": "2", "layer": "2", "name": "Badarpur", "name:hi": "\u092c\u0926\u0930\u092a\u0941\u0930", "network": "Delhi Metro", "note": "Contributors are requested to not edit the \"network\" and the \"operator\" tags. (2023/06/22)", "operator": "Delhi Metro Rail Corporation Limited", "public_transport": "station", "railway": "station", "station": "subway", "subway": "yes", "wikidata": "Q4840629", "wikipedia": "en:Badarpur Border metro station"}}, {"type": "way", "id": 659283553, "nodes": [6172619625, 6172619606, 6172619607, 6172619608, 6870243862, 11068819587, 6172619609, 6172619610, 6172619611, 6172619612, 6172619613, 6172619614, 6172619603, 6172619615, 6172619616, 6172619617, 6172619618, 6172619619, 6172619620, 6172619621, 6172619622, 6172619623, 6172619624, 6172619626, 6172619625], "tags": {"building": "transportation", "layer": "1", "level": "1", "name": "Okhla NSIC", "name:hi": "\u090f\u0928\u090f\u0938\u0906\u0908\u0938\u0940 \u0913\u0916\u094d\u0932\u093e", "network": "Delhi Metro", "note": "Contributors are requested to not edit the \"network\" and the \"operator\" tags. (2023/06/22)", "operator": "Delhi Metro Rail Corporation Limited", "public_transport": "station", "railway": "station", "station": "subway", "subway": "yes", "wikidata": "Q28172607", "wikipedia": "en:Okhla NSIC metro station"}}, {"type": "way", "id": 662332955, "nodes": [6200733576, 6200733890, 6200733891, 6200733578, 6200733583, 6578275501, 6200733581, 6200733579, 6200733889, 6200733886, 6200733885, 6200733584, 6200733887, 6200733888, 6200733577, 6200733580, 6200733582, 6578275502, 6200733576], "tags": {"air_conditioning": "yes", "building": "transportation", "name": "Tughlakabad Metro Station", "name:hi": "\u0924\u0941\u0917\u0932\u0915\u093e\u092c\u093e\u0926", "network": "Delhi Metro", "note": "Contributors are requested to not edit the \"network\" and the \"operator\" tags. (2023/06/22)", "operator": "Delhi Metro Rail Corporation Limited", "public_transport": "station", "railway": "station", "station": "subway", "subway": "yes", "wheelchair": "yes", "wikidata": "Q7851651", "wikipedia": "en:Tughlakabad Station metro station"}}, {"type": "way", "id": 662484598, "nodes": [6202059591, 6202059599, 6935670359, 6935670343, 6935670353, 6935670360, 6935670350, 12159111691, 11814425255, 6935670358, 6202059597, 6202059596, 6202059598, 6202059594, 6202059588, 6202059600, 12135670068, 6935670352, 6202059601, 6202059589, 6202059595, 6202059593, 6202059591], "tags": {"building": "transportation", "building:levels": "2", "layer": "1", "level": "1", "name": "Durgabai Deshmukh South Campus", "name:hi": "\u0926\u0941\u0930\u094d\u0917\u093e\u092c\u093e\u0908 \u0926\u0947\u0936\u092e\u0941\u0916 \u0938\u093e\u0909\u0925 \u0915\u0948\u0902\u092a\u0938", "network": "Delhi Metro", "nohousenumber": "yes", "note": "Contributors are requested to not edit the \"network\" and the \"operator\" tags. (2023/06/22)", "operator": "Delhi Metro Rail Corporation Limited", "public_transport": "station", "railway": "station", "station": "subway", "subway": "yes", "wheelchair": "yes", "wikidata": "Q38739199", "wikipedia": "en:Durgabai Deshmukh South Campus metro station"}}, {"type": "way", "id": 696181173, "nodes": [6537402814, 6537402811, 6537402812, 6537402813, 6537402814], "tags": {"building": "roof", "name": "Mayur Vihar Extension", "name:hi": "\u092e\u092f\u0942\u0930 \u0935\u093f\u0939\u093e\u0930 \u090f\u0915\u094d\u0938\u091f\u0947\u0902\u0936\u0928", "network": "Delhi Metro", "note": "Contributors are requested to not edit the \"network\" and the \"operator\" tags. (2023/06/22)", "operator": "Delhi Metro Rail Corporation Limited", "public_transport": "station", "railway": "station", "station": "subway", "subway": "yes", "wheelchair": "yes", "wikidata": "Q6798108", "wikipedia": "en:Mayur Vihar Extension metro station"}}, {"type": "way", "id": 698298769, "nodes": [6557965571, 6557965572, 6557965573, 6557965574, 13162475352, 6557965576, 6557965577, 6557965578, 6557965579, 6557965580, 6557965581, 6557965582, 6557965583, 6557965571], "tags": {"air_conditioning": "yes", "building": "transportation", "elevation": "1", "layer": "1", "level": "1", "name": "Sarita Vihar", "name:hi": "\u0938\u0930\u093f\u0924\u093e \u0935\u093f\u0939\u093e\u0930", "network": "Delhi Metro", "note": "Contributors are requested to not edit the \"network\" and the \"operator\" tags. (2023/06/22)", "operator": "Delhi Metro Rail Corporation Limited", "public_transport": "station", "railway": "station", "station": "subway", "subway": "yes", "wikidata": "Q7424130", "wikipedia": "en:Sarita Vihar metro station"}}, {"type": "way", "id": 698455465, "nodes": [6559377938, 9869990203, 6559377939, 6559377940, 6559377941, 6559377942, 6559377943, 6559377944, 6559377945, 9869990196, 6559377946, 6559377947, 6559377948, 6559377949, 6559377950, 6559377951, 6559377952, 6559377953, 6559377938], "tags": {"air_conditioning": "yes", "building": "transportation", "name": "Mohan Estate", "name:hi": "\u092e\u094b\u0939\u0928 \u0907\u0938\u094d\u091f\u0947\u091f", "network": "Delhi Metro", "note": "Contributors are requested to not edit the \"network\" and the \"operator\" tags. (2023/06/22)", "operator": "Delhi Metro Rail Corporation Limited", "public_transport": "station", "railway": "station", "station": "subway", "subway": "yes", "wheelchair": "yes", "wikidata": "Q6893528", "wikipedia": "en:Mohan Estate metro station"}}, {"type": "way", "id": 701576004, "nodes": [6588684197, 6588684198, 6588684199, 6588684200, 6588684201, 6588684202, 6588684203, 6588684204, 6588684205, 6588684206, 6588684207, 6588684208, 6588684209, 6588684210, 6588684197], "tags": {"building": "yes", "name": "Dilshad Garden", "name:hi": "\u0926\u093f\u0932\u0936\u093e\u0926 \u0917\u093e\u0930\u094d\u0921\u0928", "network": "Delhi Metro", "note": "Contributors are requested to not edit the \"network\" and the \"operator\" tags. (2023/06/22)", "operator": "Delhi Metro Rail Corporation Limited", "public_transport": "station", "railway": "station", "station": "subway", "subway": "yes", "wikidata": "Q4207341", "wikipedia": "en:Dilshad Garden metro station"}}, {"type": "way", "id": 840200539, "nodes": [7840172264, 7840172265, 7840172266, 7840172267, 7840172268, 7840172269, 7840172270, 7840172271, 7840172272, 7840172273, 7840172274, 7840172275, 7840172276, 7840172277, 10966173706, 7840172264], "tags": {"air_conditioning": "yes", "building": "transportation", "elevation": "1", "layer": "1", "level": "1", "name": "Jasola Apollo", "name:hi": "\u091c\u0938\u094b\u0932\u093e \u0905\u092a\u094b\u0932\u094b", "network": "Delhi Metro", "note": "Contributors are requested to not edit the \"network\" and the \"operator\" tags. (2023/06/22)", "operator": "Delhi Metro Rail Corporation Limited", "public_transport": "station", "railway": "station", "station": "subway", "subway": "yes", "wikidata": "Q17058781", "wikipedia": "en:Jasola Apollo metro station"}}, {"type": "way", "id": 1173591531, "nodes": [10904526548, 10904526549, 10904526550, 10904526551, 10904526548], "tags": {"addr:city": "New Delhi", "addr:postcode": "110022", "addr:street": "Munirka Flyover", "internet_access": "yes", "internet_access:fee": "no", "name": "Delhi Metro, RK Puram", "network": "Delhi Metro", "note": "Contributors are requested to not edit the \"network\" and the \"operator\" tags. (2023/06/22)", "operator": "Delhi Metro Rail Corporation Limited", "public_transport": "station", "railway": "station", "station": "subway", "subway": "yes"}}, {"type": "way", "id": 1372976809, "nodes": [12712532190, 12712532198], "tags": {"highway": "path", "network:wikidata": "Q1055811", "operator:wikidata": "Q908666", "station": "subway"}}, {"type": "way", "id": 1391095702, "nodes": [12876529173, 12876529174, 12876529175, 12876529176, 12876529173], "tags": {"public_transport": "station", "railway": "station", "train": "yes"}}]}